amphurEN,amphurTH,changwat,lat,long,pop,area,zip
Akat Amnuai,อากาศอำนวย,Sakon Nakhon,17.59667,103.975,67328.0,115.1,47170.0
Mueang Amnat Charoen,เมืองอำนาจเจริญ,Amnat Charoen,15.858329999999999,104.62944,128992.0,216.2,37000.0
Amphawa,อัมพวา,Samut Songkhram,13.42472,99.95721999999999,57161.0,365.2,75110.0
Mueang Ang Thong,เมืองอ่างทอง,Ang Thong,14.588610000000001,100.45333000000001,55974.0,544.5,14000.0
Ao Luek,อ่าวลึก,Krabi,8.3775,98.72166999999999,48474.0,62.7,81110.0
Aranyaprathet,อรัญประเทศ,Sa Kaeo,13.700829999999998,102.51167,83171.0,101.3,27120.0
At Samat,อาจสามารถ,Roi Et,15.84361,103.87889,74711.0,164.4,45160.0
Bacho,บาเจาะ,Narathiwat,6.51694,101.65167,48605.0,283.1,96170.0
Bamnet Narong,บำเหน็จณรงค์,Chaiyaphum,15.500279999999998,101.68639,54750.0,97.7,36160.0
Ban Bueng,บ้านบึง,Chonburi,13.31139,101.11222,93401.0,144.5,20170.0
Ban Chang,บ้านฉาง,Rayong,12.72833,101.06639,49189.0,206.3,21130.0
Ban Dan,บ้านด่าน,Buriram,15.107220000000002,103.17472,30548.0,123.4,31000.0
Ban Dan Lan Hoi,บ้านด่านลานหอย,Sukhothai,17.00611,99.57472,42074.0,41.3,64140.0
Ban Dung,บ้านดุง,Udon Thani,17.70111,103.25972,123227.0,133.2,41190.0
Ban Fang,บ้านฝาง,Khon Kaen,16.453329999999998,102.63833000000001,52999.0,158.7,40270.0
Bang Ban,บางบาล,Ayutthaya,14.373610000000001,100.48555999999999,34404.0,254.3,13250.0
Bang Bo,บางบ่อ,Samut Prakan,13.57417,100.83610999999999,90226.0,368.0,10560.0
Bang Bon,บางบอน,Thung Saliam,18.694992000000003,98.78976999999999,93225.0,2683.0,10150.0
Bang Bua Thong,บางบัวทอง,Nonthaburi,13.96861,100.40556,226741.0,1946.3,11110.0
Bang Kaeo,บางแก้ว,Phatthalung,7.43,100.17833,25628.0,215.4,93140.0
Bang Kapi,บางกะปิ,Krung Thep Maha Nakhon,13.76583,100.64778000000001,147694.0,5178.0,10240.0
Bang Khae,บางแค,Krung Thep Maha Nakhon,13.696110000000001,100.40944,193449.0,4352.0,10160.0
Bang Khan,บางขัน,Nakhon Si Thammarat,8.02667,99.47333,40498.0,67.3,80360.0
Bang Khen,บางเขน,Krung Thep Maha Nakhon,13.87389,100.59639,177062.0,4203.0,10220.0
Bang Khla,บางคล้า,Chachoengsao,13.728060000000001,101.20806,46539.0,204.2,24110.0
Bang Kho Laem,บางคอแหลม,Krung Thep Maha Nakhon,13.69333,100.5025,106499.0,9752.0,10120.0
Bang Khonthi,บางคนที,Samut Songkhram,13.46889,99.94055999999999,33334.0,435.4,75120.0
Bang Khun Thian,บางขุนเทียน,Krung Thep Maha Nakhon,13.660829999999999,100.43583000000001,161642.0,1339.34,10150.0
Bang Klam,บางกล่ำ,Songkhla,7.089169999999999,100.41083,27392.0,185.3,90110.0
Bangkok Noi,บางกอกน้อย,Krung Thep Maha Nakhon,13.76278,100.47806,152867.0,12798.0,10700.0
Bangkok Yai,บางกอกใหญ่,Krung Thep Maha Nakhon,13.722779999999998,100.47639000000001,85075.0,13766.0,10600.0
Bang Krathum,บางกระทุ่ม,Phitsanulok,16.585279999999997,100.30611,48667.0,111.0,65110.0
Bang Kruai,บางกรวย,Nonthaburi,13.805,100.47278,66200.0,1153.0,11130.0
Bang Lamung,บางละมุง,Chonburi,12.97667,100.91333,212568.0,1228.7,20150.0
Bang Len,บางเลน,Nakhon Pathom,14.02167,100.16556,89223.0,156.0,73130.0
Bang Mun Nak,บางมูลนาก,Phichit,16.02778,100.37889,49302.0,130.5,66120.0
Bang Na,บางนา,Krung Thep Maha Nakhon,13.66722,100.64194,101737.0,5415.0,10260.0
Bang Nam Priao,บางน้ำเปรี้ยว,Chachoengsao,13.847220000000002,101.05333,83275.0,160.6,24150.0
Bang Pahan,บางปะหัน,Ayutthaya,14.4625,100.54472,38799.0,318.3,13220.0
Bang Pa-in,บางปะอิน,Ayutthaya,14.2275,100.57556,73630.0,321.4,13160.0
Bang Pakong,บางปะกง,Chachoengsao,13.542779999999999,100.99389000000001,83040.0,360.9,24130.0
Bang Phae,บางแพ,Ratchaburi,13.69139,99.93028000000001,44562.0,248.8,70160.0
Bang Phlat,บางพลัด,Krung Thep Maha Nakhon,13.79389,100.505,116271.0,10235.0,10700.0
Bang Phli,บางพลี,Samut Prakan,13.60583,100.70611,212516.0,817.4,10540.0
Bang Pla Ma,บางปลาม้า,Suphanburi,14.402220000000002,100.15444000000001,86947.0,180.7,72150.0
Bang Rachan,บางระจัน,Singburi,14.892220000000002,100.31721999999999,37936.0,199.1,16130.0
Bang Rak,บางรัก,Krung Thep Maha Nakhon,13.73083,100.52417,60485.0,10926.0,10500.0
Bang Rakam,บางระกำ,Phitsanulok,16.758329999999997,100.11806,94854.0,101.3,65140.0
Bang Sai,บางไท,Ayutthaya,14.212778,100.498333,19973.0,132.5,13270.0
Bang Sao Thong,บางเสาธง,Samut Prakan,13.595,100.83055999999999,54843.0,477.8,10540.0
Bang Saphan,บางสะพาน,Prachuap Khiri Khan,11.21417,99.51194,71241.0,82.07,77140.0
Bang Saphan Noi,บางสะพานน้อย,Prachuap Khiri Khan,11.075,99.44167,35553.0,49.37,77170.0
Bang Sue,บางซื่อ,Krung Thep Maha Nakhon,13.80972,100.53721999999999,180598.0,15704.0,10800.0
Bang Yai,บางใหญ่,Nonthaburi,13.87667,100.40389,34953.0,363.0,11140.0
Ban Haet,บ้านแฮด,Khon Kaen,16.2025,102.75083000000001,32135.0,156.6,40110.0
Ban Hong,บ้านโฮ่ง,Lamphun,18.33111,98.81889,42697.0,71.5,51130.0
Ban Kha,บ้านคา,Ratchaburi,13.43,99.40833,22818.0,22.2,70180.0
Ban Khai,บ้านค่าย,Rayong,12.783610000000001,101.29666999999999,58914.0,120.3,21120.0
Ban Khok,บ้านโคก,Uttaradit,18.025,101.07,14395.0,13.5,53180.0
Ban Khwao,บ้านเขว้า,Chaiyaphum,15.778329999999999,101.90694,51277.0,94.2,36170.0
Ban Kruat,บ้านกรวด,Buriram,14.42167,103.1,72124.0,123.5,31180.0
Ban Laem,บ้านแหลม,Phetchaburi,13.200560000000001,99.98028000000001,54068.0,290.7,76110.0
Ban Lat,บ้านลาด,Phetchaburi,13.049439999999999,99.91889,50351.0,168.9,76150.0
Ban Luang,บ้านหลวง,Nan,18.85139,100.43833000000001,12063.0,36.0,55190.0
Ban Lueam,บ้านเหลื่อม,Nakhon Ratchasima,15.60917,102.12944,21480.0,101.3,30350.0
Ban Mai Chaiyaphot,บ้านใหม่ไชยพจน์,Buriram,15.572779999999998,102.83333,26988.0,151.6,31120.0
Ban Mi,บ้านหมี่,Lopburi,15.044720000000002,100.53694,86064.0,146.9,15110.0
Ban Mo,บ้านหมอ,Saraburi,14.61556,100.72721999999999,39489.0,194.0,18130.0
Ban Muang,บ้านม่วง,Sakon Nakhon,17.851110000000002,103.57,67196.0,79.1,47140.0
Ban Na,บ้านนา,Nakhon Nayok,14.266670000000001,101.06139,67268.0,173.2,26110.0
Ban Na Doem,บ้านนาเดิม,Surat Thani,8.885,99.31,21797.0,105.1,84240.0
Bannang Sata,บันนังสตา,Yala,6.2666699999999995,101.26444000000001,53161.0,84.5,95130.0
Ban Na San,บ้านนาสาร,Surat Thani,8.80056,99.36417,68345.0,81.4,84120.0
Ban Phaeng,บ้านแพง,Nakhon Phanom,17.96806,104.21583000000001,34232.0,118.7,48140.0
Ban Phaeo,บ้านแพ้ว,Samut Sakhon,13.59056,100.10778,90961.0,371.0,74120.0
Ban Phai,บ้านไผ่,Khon Kaen,16.06,102.73083000000001,101031.0,211.5,40110.0
Ban Pho,บ้านโพธิ์,Chachoengsao,13.599720000000001,101.07861,45477.0,209.0,24140.0
Banphot Phisai,บรรพตพิสัย,Nakhon Sawan,15.93583,99.98222,88300.0,97.0,60180.0
Ban Phraek,บ้านแพรก,Ayutthaya,14.64778,100.5825,9250.0,236.6,13240.0
Ban Phue,บ้านผือ,Udon Thani,17.6875,102.47278,107965.0,108.2,41190.0
Ban Pong,บ้านโป่ง,Ratchaburi,13.81417,99.87111,157689.0,430.1,70110.0
Ban Rai,บ้านไร่,Uthai Thani,15.08389,99.52111,66167.0,18.3,61140.0
Ban Sang,บ้านสร้าง,Prachinburi,13.995,101.22139,30807.0,85.3,25150.0
Ban Tak,บ้านตาก,Tak,17.043329999999997,99.07889,46492.0,46.8,63120.0
Ban Ta Khun,บ้านตาขุน,Surat Thani,8.905,98.885,14116.0,10.8,84230.0
Ban Thaen,บ้านแท่น,Chaiyaphum,16.405,102.34194000000001,43992.0,142.5,36190.0
Ban Thi,บ้านธิ,Lamphun,18.651670000000003,99.125,17607.0,136.5,51180.0
Benchalak,เบญจลักษ์,Sisaket,14.795,104.67,35807.0,108.1,33110.0
Betong,เบตง,Yala,5.77361,101.06056,54620.0,41.1,95110.0
Bo Kluea,บ่อเกลือ,Nan,19.148889999999998,101.1575,14326.0,17.0,55000.0
Bo Phloi,บ่อพลอย,Kanchanaburi,14.325829999999998,99.51444000000001,54288.0,56.1,71160.0
Borabue,บรบือ,Maha Sarakham,16.03833,103.11917,108256.0,158.8,44130.0
Bo Rai,บ่อไร่,Trat,12.57972,102.525,39736.0,58.4,23140.0
Bo Thong,บ่อทอง,Chonburi,13.27861,101.44028,45547.0,58.3,20270.0
Buachet,บัวเชด,Surin,14.526670000000001,103.945,37877.0,79.1,32230.0
Bua Lai,บัวลาย,Nakhon Ratchasima,15.66278,102.52722,25061.0,188.3,30120.0
Bua Yai,บัวใหญ่,Nakhon Ratchasima,15.583060000000001,102.42305999999999,86776.0,319.5,30120.0
Bueng Bun,บึงบูรพ์,Sisaket,15.330279999999998,104.045,10655.0,214.9,33220.0
Bueng Kan,เมืองบึงกาฬ,Bueng Kan,18.358060000000002,103.65306,89978.0,105.5,38000.0
Bueng Khong Long,บึงโขงหลง,Bueng Kan,17.96667,104.045,35808.0,87.2,38220.0
Bueng Kum,บึงกุ่ม,Krung Thep Maha Nakhon,13.785279999999998,100.66917,138340.0,5690.0,10240.0
Bueng Na Rang,บึงนาราง,Phichit,16.171670000000002,100.12666999999999,28277.0,62.3,66130.0
Bueng Samakkhi,บึงสามัคคี,Kamphaeng Phet,16.18833,99.9775,26663.0,70.7,62210.0
Bueng Sam Phan,บึงสามพัน,Phetchabun,15.79667,101.00833,66613.0,136.0,67160.0
Bung Khla,บุ่งคล้า,Bueng Kan,18.30167,103.97333,13037.0,52.0,38000.0
Buntharik,บุณฑริก,Ubon Ratchathani,14.756670000000002,105.41139,88052.0,62.8,34230.0
Buri Ram,บุรีรัมย์,Buriram,14.994167000000001,103.102222,28283.0,4695.84,31000.0
Cha-am,ชะอำ,Phetchaburi,12.799719999999999,99.96694000000001,20573.0,73.37,76121.0
Mueang Chachoengsao,เมืองฉะเชิงเทรา,Chachoengsao,13.68861,101.07083,141924.0,374.8,24000.0
Chae Hom,แจ้ห่ม,Lampang,18.71278,99.5575,42457.0,31.2,52120.0
Chai Badan,ชัยบาดาล,Lopburi,15.20611,101.13667,90224.0,70.7,15130.0
Chai Buri,ชัยบุรี,Surat Thani,8.46278,99.07667,23347.0,53.0,84210.0
Chai Nat,ชัยนาท,Chainat,15.187222,100.128333,14469.0,286.6,17000.0
Chai Prakan,ไชยปราการ,Chiang Mai,19.73222,99.14028,47898.0,93.8,50320.0
Chai Wan,ไชยวาน,Udon Thani,17.28667,103.22333,38209.0,117.2,41290.0
Chaiya,ไชยา,Surat Thani,9.38667,99.2,47750.0,47.52,84110.0
Mueang Chaiyaphum,เมืองชัยภูมิ,Chaiyaphum,15.806939999999999,102.03166999999999,184921.0,158.1,36000.0
Chaiyo,ไชโย,Ang Thong,14.649170000000002,100.47861,22882.0,316.5,14140.0
Chakkarat,จักราช,Nakhon Ratchasima,15.013329999999998,102.41333,66615.0,132.8,30230.0
Chaloem Phra Kiat,เฉลิมพระเกียรติ,Buriram,14.558333,102.925,39796.0,113.8,31110.0
Chaloem Phra Kiat,เฉลิมพระเกียรติ,Nakhon Ratchasima,15.005,102.27166700000001,33151.0,130.5,30230.0
Chaloem Phra Kiat,เฉลิมพระเกียรติ,Nakhon Si Thammarat,8.176667,100.035,33466.0,269.7,80190.0
Chaloem Phra Kiat,เฉลิมพระเกียรติ,Nan,19.579167,101.08111099999999,9347.0,18.0,55130.0
Chaloem Phra Kiat,เฉลิมพระเกียรติ,Saraburi,14.611389,100.908611,25616.0,170.1,18000.0
Chamni,ชำนิ,Buriram,14.788329999999998,102.84167,33646.0,138.4,31110.0
Chana,จะนะ,Songkhla,6.9141699999999995,100.74056,97095.0,193.0,90130.0
Chanae,จะแนะ,Narathiwat,6.098330000000001,101.69333,31336.0,51.6,96220.0
Changhan,จังหาร,Roi Et,16.13833,103.615,47832.0,47.4,45000.0
Chang Klang,ช้างกลาง,Nakhon Si Thammarat,8.37417,99.56806,29594.0,127.3,80250.0
Mueang Chanthaburi,เมืองจันทบุรี,Chanthaburi,12.610560000000001,102.10417,119203.0,471.0,22000.0
Chanuman,ชานุมาน,Amnat Charoen,16.23333,105.0,37677.0,67.8,37210.0
Charoen Sin,เจริญศิลป์,Sakon Nakhon,17.59667,103.56555999999999,42375.0,105.7,47290.0
Chat Trakan,ชาติตระการ,Phitsanulok,17.276670000000003,100.59917,38646.0,24.4,65170.0
Chatturat,จัตุรัส,Chaiyaphum,15.565560000000001,101.84555999999999,74548.0,102.0,36130.0
Chatuchak,จตุจักร,Krung Thep Maha Nakhon,13.828610000000001,100.55972,176501.0,5363.0,10900.0
Chaturaphak Phiman,จตุรพักตรพิมาน,Roi Et,15.846110000000001,103.55694,81749.0,148.9,45180.0
Cha-uat,ชะอวด,Nakhon Si Thammarat,7.965,99.99833000000001,84227.0,101.1,80180.0
Chawang,ฉวาง,Nakhon Si Thammarat,8.426110000000001,99.50471999999999,65787.0,124.5,80150.0
Chiang Dao,เชียงดาว,Chiang Mai,19.36611,98.96417,87922.0,46.7,50170.0
Chiang Kham,เชียงคำ,Phayao,19.523329999999998,100.30167,77211.0,98.5,56160.0
Chiang Khan,เชียงคาน,Loei,17.89806,101.66639,59016.0,68.1,42110.0
Chiang Khong,เชียงของ,Chiang Rai,20.26,100.40666999999999,62410.0,76.1,57140.0
Chiang Khwan,เชียงขวัญ,Roi Et,16.16556,103.75194,27859.0,219.0,45000.0
Chiang Klang,เชียงกลาง,Nan,19.29167,100.86166999999999,28234.0,100.0,55160.0
Mueang Chiang Mai,เมืองเชียงใหม่,Chiang Mai,18.79028,98.98444,242974.0,1594.3,50000.0
Chiang Muan,เชียงม่วน,Phayao,18.886670000000002,100.30333,19122.0,26.5,56160.0
Mueang Chiang Rai,เมืองเชียงราย,Chiang Rai,19.90861,99.8325,227142.0,186.8,57000.0
Chiang Saen,เชียงแสน,Chiang Rai,20.275,100.08833,51948.0,99.2,57150.0
Chiang Yuen,เชียงยืน,Maha Sarakham,16.40806,103.10528000000001,61704.0,214.5,44160.0
Chian Yai,เชียรใหญ่,Nakhon Si Thammarat,8.168330000000001,100.145,45827.0,196.9,80190.0
Cho-airong,เจาะไอร้อง,Narathiwat,6.20167,101.84167,35989.0,221.2,96130.0
Chok Chai,โชคชัย,Nakhon Ratchasima,14.732220000000002,102.16306,78449.0,146.2,30190.0
Chom Bueng,จอมบึง,Ratchaburi,13.619720000000001,99.59167,58057.0,75.2,70150.0
Chom Phra,จอมพระ,Surin,15.1175,103.61139,60568.0,192.9,32180.0
Chom Thong,จอมทอง,Krung Thep Maha Nakhon,13.677222,100.48472199999999,167794.0,6389.0,10150.0
Chom Thong,จอมทอง,Chiang Mai,18.417222,98.675833,76376.0,107.2,50160.0
Chon Buri,เมืองชลบุรี,Chonburi,13.361944,100.979167,245398.0,1072.0,20000.0
Chon Daen,ชนแดน,Phetchabun,16.18917,100.85972,86086.0,75.7,67150.0
Chonnabot,ชนบท,Khon Kaen,16.08833,102.62167,48756.0,120.6,40180.0
Chuen Chom,ชื่นชม,Maha Sarakham,16.53139,103.17166999999999,24586.0,217.6,44160.0
Chulabhorn,จุฬาภรณ์,Nakhon Si Thammarat,8.075,99.87,30668.0,159.3,80130.0
Chum Phae,ชุมแพ,Khon Kaen,16.54417,102.09971999999999,122091.0,239.0,40130.0
Mueang Chumphon,เมืองชุมพร,Chumphon,10.49306,99.18028000000001,141.765,189.4,86000.0
Chumphon Buri,ชุมพลบุรี,Surin,15.350829999999998,103.38889,70391.0,135.4,32190.0
Chum Phuang,ชุมพวง,Nakhon Ratchasima,15.348889999999999,102.74194,81440.0,150.7,30270.0
Chum Saeng,ชุมแสง,Nakhon Sawan,15.881110000000001,100.3025,67489.0,94.2,60150.0
Chum Ta Bong,ชุมตาบง,Nakhon Sawan,15.631670000000002,99.55278,18369.0,48.5,60150.0
Chun,จุน,Phayao,19.337220000000002,100.135,52066.0,91.2,56150.0
Damnoen Saduak,ดำเนินสะดวก,Ratchaburi,13.5175,99.95472,98994.0,470.7,70130.0
Dan Chang,ด่านช้าง,Suphanburi,14.84167,99.69722,64416.0,54.0,72180.0
Dan Khun Thot,ด่านขุนทด,Nakhon Ratchasima,15.20972,101.76583000000001,126253.0,88.4,36220.0
Dan Makham Tia,ด่านมะขามเตี้ย,Kanchanaburi,13.85361,99.41056,32248.0,40.0,71260.0
Dan Sai,ด่านซ้าย,Loei,17.28,101.14667,49270.0,28.4,42120.0
Den Chai,เด่นชัย,Phrae,17.97861,100.05861,37440.0,141.0,54140.0
Det Udom,เดชอุดม,Ubon Ratchathani,14.90306,105.07638999999999,169896.0,142.9,34160.0
Din Daeng,ดินแดง,Krung Thep Maha Nakhon,13.769720000000001,100.55278,186319.0,22180.0,10400.0
Doem Bang Nang Buat,เดิมบางนางบวช,Suphanburi,14.85361,100.09778,74619.0,135.1,72120.0
Doi Lo,ดอยหล่อ,Chiang Mai,18.474439999999998,98.78361,27623.0,106.2,50160.0
Doi Luang,ดอยหลวง,Chiang Rai,20.11833,100.1,19356.0,86.8,57110.0
Doi Saket,ดอยสะเก็ด,Chiang Mai,18.870279999999998,99.13667,64116.0,95.5,50220.0
Doi Tao,ดอยเต่า,Chiang Mai,17.95361,98.685,27284.0,33.9,50260.0
Dok Khamtai,ดอกคำใต้,Phayao,19.1625,99.99333,73205.0,88.9,56120.0
Don Chan,ดอนจาน,Kalasin,16.45833,103.695,25164.0,106.4,46000.0
Don Chedi,ดอนเจดีย์,Suphanburi,14.635,100.02167,45336.0,179.8,72170.0
Dong Charoen,ดงเจริญ,Phichit,16.02833,100.62666999999999,18214.0,82.7,66210.0
Dong Luang,ดงหลวง,Mukdahan,16.815279999999998,104.53778,35808.0,33.3,49140.0
Don Mot Daeng,ดอนมดแดง,Ubon Ratchathani,15.37889,105.02722,26301.0,112.4,34000.0
Don Mueang,ดอนเมือง,Krung Thep Maha Nakhon,13.91361,100.58972,157989.0,4293.0,10210.0
Don Phut,ดอนพุด,Saraburi,14.592220000000001,100.62833,6957.0,118.5,18210.0
Don Sak,ดอนสัก,Surat Thani,9.313889999999999,99.69028,35468.0,77.0,84220.0
Don Tan,ดอนตาล,Mukdahan,16.316670000000002,104.92,42215.0,81.3,49120.0
Don Tum,ดอนตูม,Nakhon Pathom,13.960560000000001,100.08139,45386.0,265.0,73150.0
Dusit,ดุสิต,Krung Thep Maha Nakhon,13.77694,100.52056,175658.0,16416.6,10300.0
Erawan,เอราวัณ,Loei,17.31,101.94,37079.0,141.5,42220.0
Fak Tha,ฟากท่า,Uttaradit,17.99222,100.87861,15128.0,24.2,53160.0
Fang,ฝาง,Chiang Mai,19.91889,99.21361,121033.0,136.3,50110.0
Fao Rai,เฝ้าไร่,Nong Khai,18.01889,103.30389,50481.0,197.3,43120.0
Galyani Vadhana,กัลยาณิวัฒนา,Chiang Mai,19.06694,98.29444000000001,10593.0,16.4,50270.0
Hang Chat,ห้างฉัตร,Lampang,18.321939999999998,99.31778,51495.0,75.2,52190.0
Hang Dong,หางดง,Chiang Mai,18.68694,98.91889,67570.0,243.8,50230.0
Hankha,หันคา,Chainat,14.981110000000001,100.01472,56394.0,106.5,17130.0
Hat Samran,หาดสำราญ,Trang,7.24,99.57667,15550.0,69.4,92120.0
Hat Yai,หาดใหญ่,Songkhla,7.001939999999999,100.45721999999999,359813.0,422.0,90110.0
Hot,ฮอด,Chiang Mai,18.19278,98.61111,48287.0,33.8,50240.0
Hua Hin,หัวหิน,Prachuap Khiri Khan,12.568610000000001,99.95778,85099.0,101.44,77110.0
Huai Khot,ห้วยคด,Uthai Thani,15.29139,99.61667,19547.0,46.1,61170.0
Huai Khwang,ห้วยขวาง,Krung Thep Maha Nakhon,13.776670000000001,100.57944,90185.0,6012.0,10310.0
Huai Krachao,ห้วยกระเจา,Kanchanaburi,14.32722,99.66667,32602.0,52.5,71170.0
Huai Mek,ห้วยเม็ก,Kalasin,16.59,103.23555999999999,49716.0,170.8,46240.0
Huai Phueng,ห้วยผึ้ง,Kalasin,16.64583,103.90889,30343.0,118.1,46170.0
Huai Rat,ห้วยราช,Buriram,14.96,103.18833000000001,35941.0,244.3,31000.0
Huai Thalaeng,ห้วยแถลง,Nakhon Ratchasima,14.99833,102.63833000000001,78581.0,158.7,30240.0
Huai Thap Than,ห้วยทับทัน,Sisaket,15.05,104.02333,41132.0,211.4,33210.0
Huai Yot,ห้วยยอด,Trang,7.785,99.635,90261.0,119.8,92130.0
Hua Sai,หัวไทร,Nakhon Si Thammarat,8.04,100.275,68863.0,164.8,80170.0
Hua Taphan,หัวตะพาน,Amnat Charoen,15.696670000000001,104.49167,50524.0,94.8,37240.0
In Buri,อินทร์บุรี,Singburi,15.007779999999999,100.32694000000001,57771.0,183.8,16110.0
Kabang,กาบัง,Yala,6.4275,101.01916999999999,17702.0,39.3,95120.0
Kabin Buri,กบินทร์บุรี,Prachinburi,13.946670000000001,101.71333,134794.0,103.0,25110.0
Kae Dam,แกดำ,Maha Sarakham,16.025,103.385,29218.0,195.4,44190.0
Kaeng Hang Maeo,แก่งหางแมว,Chanthaburi,13.00833,101.905,36453.0,29.1,22160.0
Kaeng Khoi,แก่งคอย,Saraburi,14.58639,100.99778,88921.0,111.0,18110.0
Kaeng Khro,แก้งคร้อ,Chaiyaphum,16.108610000000002,102.25806,87663.0,150.6,36150.0
Kaeng Krachan,แก่งกระจาน,Phetchaburi,12.9075,99.64806,27668.0,11.1,76170.0
Kaeng Sanam Nang,แก้งสนามนาง,Nakhon Ratchasima,15.75,102.25471999999999,37884.0,353.2,30440.0
Mueang Kalasin,เมืองกาฬสินธุ์,Kalasin,16.4325,103.50610999999999,145579.0,224.0,46000.0
Kamalasai,กมลาไสย,Kalasin,16.33889,103.57528,69535.0,213.8,46130.0
Mueang Kamphaeng Phet,เมืองกำแพงเพชร,Kamphaeng Phet,16.48333,99.52,211369.0,108.1,62000.0
Kamphaeng Saen,กำแพงแสน,Nakhon Pathom,13.983889999999999,99.99389000000001,124715.0,307.9,73140.0
Mueang Kanchanaburi,เมืองกาญจนบุรี,Kanchanaburi,14.003329999999998,99.55,153597.0,124.2,71000.0
Kanchanadit,กาญจนดิษฐ์,Surat Thani,9.165560000000001,99.47111,98432.0,109.8,84160.0
Kantang,กันตัง,Trang,7.40556,99.51528,84285.0,135.5,92110.0
Kantharalak,กันทรลักษ์,Sisaket,14.64,104.65,209448.0,160.5,33110.0
Kanthararom,กันทรารมย์,Sisaket,15.106670000000001,104.57,100370.0,151.1,33130.0
Kantharawichai,กันทรวิชัย,Maha Sarakham,16.322779999999998,103.29666999999999,80250.0,215.6,44150.0
Kao Liao,เก้าเลี้ยว,Nakhon Sawan,15.85028,100.07861,34843.0,135.7,60230.0
Kap Choeng,กาบเชิง,Surin,14.474720000000001,103.59416999999999,59589.0,103.8,32210.0
Kapho,กะพ้อ,Pattani,6.55917,101.53416999999999,15782.0,168.2,94230.0
Kapoe,กะเปอร์,Ranong,9.585280000000001,98.59611,19193.0,29.2,85120.0
Kapong,กะปง,Phang Nga,8.69667,98.40833,12963.0,22.0,82170.0
Kaset Sombun,เกษตรสมบูรณ์,Chaiyaphum,16.280279999999998,101.95389,110382.0,77.8,36120.0
Kaset Wisai,เกษตรวิสัย,Roi Et,15.65611,103.58,99024.0,170.7,45150.0
Kathu,กะทู้,Phuket,7.9088899999999995,98.33333,43541.0,649.0,83120.0
Khaen Dong,แคนดง,Buriram,15.31,103.12333000000001,31908.0,107.1,31150.0
Khai Bang Rachan,ค่ายบางระจัน,Singburi,14.800279999999999,100.31083000000001,28261.0,319.7,16150.0
Khamcha-i,คำชะอี,Mukdahan,16.57722,104.41917,46987.0,72.8,49110.0
Kham Khuean Kaeo,คำเขื่อนแก้ว,Yasothon,15.65306,104.30889,68606.0,109.85,35110.0
Kham Muang,คำม่วง,Kalasin,16.92333,103.63167,47412.0,76.3,46180.0
Kham Sakaesaeng,ขามสะแกแสง,Nakhon Ratchasima,15.32944,102.17083000000001,43365.0,145.5,30290.0
Kham Ta Kla,คำตากล้า,Sakon Nakhon,17.849439999999998,103.755,37902.0,94.3,47250.0
Kham Thale So,ขามทะเลสอ,Nakhon Ratchasima,14.96083,101.9475,28306.0,139.0,30280.0
Khan Na Yao,คันนายาว,Krung Thep Maha Nakhon,13.873889000000002,100.596389,88986.0,5341.0,10230.0
Khanom,ขนอม,Nakhon Si Thammarat,9.20472,99.86111,27572.0,63.5,80210.0
Khanu Woralaksaburi,ขาณุวรลักษบุรี,Kamphaeng Phet,16.06139,99.86055999999999,107631.0,94.2,62180.0
Khao Chaison,เขาชัยสน,Phatthalung,7.46167,100.13333,43292.0,166.4,93130.0
Khao Chakan,เขาฉกรรจ์,Sa Kaeo,13.651670000000001,102.09666999999999,57016.0,73.7,27000.0
Khao Chamao,เขาชะเมา,Rayong,12.975,101.685,22432.0,83.1,21110.0
Khao Khitchakut,เขาคิชฌกูฏ,Chanthaburi,12.80444,102.11471999999999,25940.0,31.2,22210.0
Khao Kho,เขาค้อ,Phetchabun,16.633329999999997,100.99833000000001,32932.0,24.7,67270.0
Khao Phanom,เขาพนม,Krabi,8.26472,99.04916999999999,45982.0,58.3,81140.0
Khao Saming,เขาสมิง,Trat,12.35333,102.435,40499.0,59.6,23130.0
Khao Suan Kwang,เขาสวนกวาง,Khon Kaen,16.858610000000002,102.86166999999999,37169.0,122.7,40280.0
Khao Wong,เขาวง,Kalasin,16.7,104.09,35130.0,171.3,46160.0
Khao Yoi,เขาย้อย,Phetchaburi,13.240279999999998,99.82417,37697.0,121.8,76140.0
Khemarat,เขมราฐ,Ubon Ratchathani,16.04,105.20666999999999,77010.0,146.7,34170.0
Khian Sa,เคียนซา,Surat Thani,8.84083,99.19417,42619.0,73.03,84260.0
Khiri Mat,คีรีมาศ,Sukhothai,16.83333,99.80167,56585.0,108.4,64160.0
Khiri Rat Nikhom,คีรีรัฐนิคม,Surat Thani,9.03,98.95333000000001,39957.0,49.2,84180.0
Khlong Hat,คลองหาด,Sa Kaeo,13.448889999999999,102.29972,35360.0,84.8,27260.0
Khlong Hoi Khong,คลองหอยโข่ง,Songkhla,6.89917,100.38861,23504.0,85.4,90230.0
Khlong Khlung,คลองขลุง,Kamphaeng Phet,16.21667,99.72,74812.0,63.1,62120.0
Khlong Khuean,คลองเขื่อน,Chachoengsao,13.79139,101.16306,13490.0,105.9,24000.0
Khlong Lan,คลองลาน,Kamphaeng Phet,16.20361,99.32111,63106.0,55.3,62180.0
Khlong Luang,คลองหลวง,Pathum Thani,14.065,100.64611,150871.0,504.2,12120.0
Khlong Sam Wa,คลองสามวา,Krung Thep Maha Nakhon,13.859720000000001,100.70416999999999,124476.0,1125.0,10510.0
Khlong San,คลองสาน,Krung Thep Maha Nakhon,13.730279999999999,100.50972,108426.0,17918.0,10600.0
Khlong Thom,คลองท่อม,Krabi,7.95333,99.145,70337.0,67.5,81120.0
Khlong Toei,คลองเตย,Krung Thep Maha Nakhon,13.708060000000001,100.58389,159527.0,12271.3,10110.0
Khlong Yai,คลองใหญ่,Trat,11.77667,102.88667,23981.0,477.7,23110.0
Khlung,ขลุง,Chanthaburi,12.45472,102.22139,55044.0,72.8,22110.0
Khok Charoen,โคกเจริญ,Lopburi,15.382779999999999,100.8225,24321.0,76.7,15250.0
Khok Pho,โคกโพธิ์,Pattani,6.729439999999999,101.09611,64329.0,189.5,94120.0
Khok Pho Chai,โคกโพธิ์ไชย,Khon Kaen,16.08361,102.39889000000001,25483.0,106.7,40160.0
Khok Samrong,โคกสำโรง,Lopburi,15.069720000000002,100.72389,86381.0,87.9,15120.0
Khok Si Suphan,โคกศรีสุพรรณ,Sakon Nakhon,17.04361,104.27333,33717.0,159.0,47280.0
Khok Sung,โคกสูง,Sa Kaeo,13.833329999999998,102.615,25686.0,58.4,27120.0
Khon Buri,ครบุรี,Nakhon Ratchasima,14.52333,102.24833000000001,93808.0,52.2,30250.0
Khong,คง,Krung Thep Maha Nakhon,15.441389000000001,102.328611,81484.0,179.2,30260.0
Khong Chai,ฆ้องชัย,Kalasin,16.261670000000002,103.45833,27098.0,211.2,46130.0
Khong Chiam,โขงเจียม,Ubon Ratchathani,15.31889,105.49556000000001,32693.0,32.7,34220.0
Mueang Khon Kaen,เมืองขอนแก่น,Khon Kaen,16.43833,102.83889,382156.0,391.5,40000.0
Khon San,คอนสาร,Chaiyaphum,16.613329999999998,101.91972,58867.0,60.9,36180.0
Khon Sawan,คอนสวรรค์,Chaiyaphum,15.93167,102.28111,54313.0,116.0,36140.0
Kho Wang,ค้อวัง,Yasothon,15.367779999999998,104.35778,26424.0,176.16,35160.0
Khuan Don,ควนโดน,Satun,6.78833,100.07667,22552.0,113.3,91160.0
Khuan Kalong,ควนกาหลง,Satun,6.84667,100.07167,29538.0,71.5,91130.0
Khuan Khanun,ควนขนุน,Phatthalung,7.735,100.01,82425.0,181.6,93110.0
Khuan Niang,ควนเนียง,Songkhla,7.186939999999999,100.35778,33264.0,159.9,90220.0
Khueang Nai,เขื่องใน,Ubon Ratchathani,15.389439999999999,104.55139,109453.0,141.6,34150.0
Khukhan,ขุขันธ์,Sisaket,14.71333,104.19833,148066.0,161.94299999999998,33140.0
Khu Mueang,คูเมือง,Buriram,15.27167,103.00166999999999,66839.0,151.2,31190.0
Khun Han,ขุนหาญ,Sisaket,14.617220000000001,104.42444,104015.0,143.8,33150.0
Khun Tan,ขุนตาล,Chiang Rai,19.83333,100.25833,33494.0,143.1,57340.0
Khun Yuam,ขุนยวม,Mae Hong Son,18.83944,97.95139,21479.0,12.6,58140.0
Khura Buri,คุระบุรี,Phang Nga,9.19389,98.415,23308.0,29.2,82150.0
Khwao Sinarin,เขวาสินรินทร์,Surin,15.002220000000001,103.59639,35394.0,186.6,32000.0
Klaeng,แกลง,Rayong,12.77833,101.65333000000001,126289.0,159.4,21110.0
Ko Chan,เกาะจันทร์,Chonburi,13.4175,101.33444,34671.0,139.4,20240.0
Ko Chang,เกาะช้าง,Trat,12.10361,102.35194,5356.0,34.6,23170.0
Ko Kha,เกาะคา,Lampang,18.191670000000002,99.39556,63870.0,115.9,52130.0
Ko Kut,เกาะกูด,Trat,11.65833,102.54222,2118.0,13.1,23000.0
Ko Lanta,เกาะลันตา,Krabi,7.65556,99.04194,30500.0,81.4,81150.0
Kong Krailat,กงไกรลาศ,Sukhothai,16.9525,99.97610999999999,64521.0,128.4,64170.0
Kong Ra,กงหรา,Phatthalung,7.40333,99.95,33413.0,130.6,93180.0
Ko Pha-ngan,เกาะพะงัน,Ubon Ratchathani,9.71667,100.0,13700.0,109.6,84280.0
Kosamphi Nakhon,โกสัมพีนคร,Kamphaeng Phet,16.63167,99.34833,28347.0,59.5,62170.0
Ko Samui,เกาะสมุย,Surat Thani,9.5,100.0,62500.0,270.0,84140.0
Ko Sichang,เกาะสีชัง,Chonburi,13.163329999999998,100.80833,5038.0,291.0,20120.0
Kosum Phisai,โกสุมพิสัย,Maha Sarakham,16.24861,103.06694,119138.0,143.9,44140.0
Ko Yao,เกาะยาว,Phang Nga,8.11167,98.59083000000001,13155.0,90.3,82160.0
Krabi,กระบี่,Krabi,8.061667,98.918611,79622.0,133.7,81000.0
Kra Buri,กระบุรี,Ranong,10.43167,98.78833,44808.0,57.2,85110.0
Kranuan,กระนวน,Khon Kaen,16.70611,103.07889,77531.0,240.8,40170.0
Krasae Sin,กระแสสินธุ์,Songkhla,7.61833,100.32833000000001,16055.0,166.5,90270.0
Krasang,กระสัง,Buriram,14.92167,103.30167,103043.0,157.9,31160.0
Krathum Baen,กระทุ่มแบน,Samut Sakhon,13.655829999999998,100.26778,138309.0,1022.0,74110.0
Krok Phra,โกรกพระ,Nakhon Sawan,15.55667,100.07333,36463.0,122.7,60170.0
Krong Pinang,กรงปินัง,Yala,6.41111,101.27333,22411.0,117.3,95000.0
Kuchinarai,กุฉินารายณ์,Kalasin,16.53833,104.055,101184.0,136.3,46110.0
Kui Buri,กุยบุรี,Prachuap Khiri Khan,12.08278,99.85417,41246.0,44.09,77150.0
Ku Kaeo,กู่แก้ว,Udon Thani,17.172220000000003,103.15306,21962.0,121.2,41130.0
Kumphawapi,กุมภวาปี,Udon Thani,17.113889999999998,103.01861,125193.0,187.6,41110.0
Kusuman,กุสุมาลย์,Sakon Nakhon,17.331670000000003,104.33333,45014.0,99.1,47210.0
Kut Bak,กุดบาก,Sakon Nakhon,17.087220000000002,103.8225,31833.0,70.0,47180.0
Kut Chap,กุดจับ,Udon Thani,17.42556,102.56667,62301.0,79.4,41250.0
Kut Chum,กุดชุม,Yasothon,16.03333,104.33806,65959.0,121.25,35140.0
Kut Khaopun,กุดข้าวปุ้น,Ubon Ratchathani,15.791670000000002,104.99667,39824.0,124.5,34270.0
Kut Rang,กุดรัง,Maha Sarakham,16.05167,102.99333,36144.0,135.4,44130.0
Laem Ngop,แหลมงอบ,Trat,12.171669999999999,102.39333,17874.0,116.1,23120.0
Laem Sing,แหลมสิงห์,Chanthaburi,12.48167,102.07361,30790.0,161.4,22130.0
Lahan Sai,ละหานทราย,Buriram,14.41167,102.86,70825.0,96.4,31170.0
Lak Si,หลักสี่,Krung Thep Maha Nakhon,13.8875,100.57889,117163.0,5130.0,10210.0
Lamae,ละแม,Chumphon,9.76833,99.09167,27278.0,105.3,86170.0
Lamduan,ลำดวน,Surin,14.72722,103.67583,30059.0,99.9,32220.0
Lam Luk Ka,ลำลูกกา,Pathum Thani,13.9325,100.74944,184316.0,619.0,12150.0
Mueang Lampang,เมืองลำปาง,Lampang,18.29194,99.50444,235092.0,205.2,52000.0
Mueang Lamphun,เมืองลำพูน,Lamphun,18.57806,99.01778,140486.0,292.8,51000.0
Lam Plai Mat,ลำปลายมาศ,Buriram,15.025279999999999,102.83861,132277.0,164.7,31130.0
Lam Sonthi,ลำสนธิ,Lopburi,15.301670000000001,101.36333,34480.0,77.1,15190.0
Lam Thamenchai,ลำทะเมนชัย,Nakhon Ratchasima,15.35333,102.91833000000001,32211.0,104.4,30270.0
Lam Thap,ลำทับ,Krabi,8.07167,99.29167,20069.0,62.6,81120.0
Lang Suan,หลังสวน,Chumphon,9.94556,99.07861,70837.0,75.8,86110.0
La-ngu,ละงู,Satun,6.86389,99.8025,63933.0,168.1,91110.0
Lan Krabue,ลานกระบือ,Kamphaeng Phet,16.60056,99.84917,41297.0,115.0,62170.0
Lan Sak,ลานสัก,Uthai Thani,15.452779999999999,99.57611,57548.0,53.3,61160.0
Lan Saka,ลานสกา,Nakhon Si Thammarat,8.37167,99.805,40406.0,117.83,80230.0
Lao Khwan,เลาขวัญ,Kanchanaburi,14.59639,99.77472,54967.0,66.1,71210.0
Lao Suea Kok,เหล่าเสือโก้ก,Ubon Ratchathani,15.406670000000002,104.92333,25767.0,90.7,34000.0
Laplae,ลับแล,Uttaradit,17.65139,100.03917,57559.0,128.3,53130.0
Lat Bua Luang,ลาดบัวหลวง,Ayutthaya,14.16583,100.3075,36186.0,181.0,13230.0
Lat Krabang,ลาดกระบัง,Krung Thep Maha Nakhon,13.723329999999999,100.78416999999999,141789.0,1144.38,10520.0
Lat Lum Kaeo,ลาดหลุมแก้ว,Pathum Thani,14.037220000000001,100.40472,52995.0,261.0,12140.0
Lat Phrao,ลาดพร้าว,Krung Thep Maha Nakhon,13.80361,100.6075,119838.0,5574.0,10310.0
Lat Yao,ลาดยาว,Nakhon Sawan,15.754170000000002,99.79056,91704.0,132.7,60150.0
La-un,ละอุ่น,Ranong,10.115,98.75,12506.0,16.7,85130.0
Li,ลี้,Lamphun,17.80333,98.95,67240.0,39.5,51110.0
Mueang Loei,เมืองเลย,Loei,17.485,101.73,117039.0,79.1,42000.0
Loeng Nok Tha,เลิงนกทา,Yasothon,16.20778,104.55471999999999,93750.0,99.4,35120.0
Lom Kao,หล่มเก่า,Phetchabun,16.88556,101.22944,60228.0,65.0,67120.0
Lom Sak,หล่มสัก,Phetchabun,16.77944,101.24221999999999,150680.0,98.1,67110.0
Long,ลอง,Phrae,18.075556,99.8325,57940.0,40.0,54150.0
Mueang Lop Buri,เมืองลพบุรี,Lopburi,14.798060000000001,100.65361,247842.0,438.2,15000.0
Lue Amnat,ลืออำนาจ,Amnat Charoen,15.701670000000002,104.645,36878.0,192.3,37000.0
Mae Ai,แม่อาย,Chiang Mai,20.03139,99.28694,77295.0,104.9,50280.0
Mae Chaem,แม่แจ่ม,Chiang Mai,18.49889,98.36194,57214.0,21.1,50270.0
Mae Chai,แม่ใจ,Phayao,19.345,99.815,36089.0,120.0,56130.0
Mae Chan,แม่จัน,Chiang Rai,20.14667,99.85333,102586.0,129.7,57110.0
Mae Charim,แม่จริม,Nan,18.703329999999998,101.005,15553.0,16.0,55170.0
Mae Fa Luang,แม่ฟ้าหลวง,Chiang Rai,20.267220000000002,99.80139,76613.0,119.4,57110.0
Mueang Mae Hong Son,เมืองแม่ฮ่องสอน,Mae Hong Son,19.30389,97.97721999999999,53333.0,22.2,58000.0
Mae Lan,แม่ลาน,Pattani,6.660830000000001,101.23971999999999,14863.0,166.6,94180.0
Mae La Noi,แม่ลาน้อย,Mae Hong Son,18.384439999999998,97.93694,34126.0,23.4,58120.0
Mae Lao,แม่ลาว,Chiang Rai,19.79,99.69972,30779.0,75.8,57250.0
Mae Mo,แม่เมาะ,Lampang,18.275,99.65,38768.0,40.4,52220.0
Mae On,แม่ออน,Chiang Mai,18.77639,99.24806,21652.0,49.0,50130.0
Mae Phrik,แม่พริก,Lampang,17.44833,99.115,17149.0,31.8,52180.0
Mae Poen,แม่เปิน,Nakhon Sawan,15.657779999999999,99.46916999999999,19730.0,75.8,60150.0
Mae Ramat,แม่ระมาด,Tak,16.983060000000002,98.51694,44798.0,30.4,63140.0
Mae Rim,แม่ริม,Chiang Mai,18.91389,98.945,82943.0,187.0,50180.0
Mae Sai,แม่สาย,Chiang Rai,20.428060000000002,99.88361,86298.0,302.8,57130.0
Mae Sariang,แม่สะเรียง,Mae Hong Son,18.15944,97.93361,50937.0,20.1,58110.0
Mae Sot,แม่สอด,Tak,16.713060000000002,98.57472,120569.0,60.71,63110.0
Mae Suai,แม่สรวย,Chiang Rai,19.65639,99.5425,82989.0,56.3,57180.0
Mae Taeng,แม่แตง,Chiang Mai,19.12194,98.94360999999999,82094.0,60.2,50150.0
Mae Tha,แม่ทา,Lampang,18.135,99.51333299999999,63032.0,77.8,52150.0
Mae Tha,แม่ทา,Lamphun,18.461944,99.134722,40361.0,52.9,51140.0
Mae Wang,แม่วาง,Chiang Mai,18.6125,98.775,30871.0,51.3,57110.0
Mae Wong,แม่วงก์,Nakhon Sawan,15.78111,99.51916999999999,52705.0,68.7,60150.0
Maha Chana Chai,มหาชนะชัย,Yasothon,15.5325,104.2425,58670.0,128.9,35130.0
Maha Rat,มหาราช,Ayutthaya,14.534170000000001,100.52694,23525.0,193.9,13150.0
Mueang Maha Sarakham,เมืองมหาสารคาม,Maha Sarakham,16.18417,103.30111,142325.0,255.7,44000.0
Mai Kaen,ไม้แก่น,Pattani,6.61,101.66722,11269.0,204.1,94220.0
Makham,มะขาม,Chanthaburi,12.67361,102.19667,29479.0,61.4,22150.0
Manang,มะนัง,Satun,28.551940000000002,84.24083,9587.0,4.3,91130.0
Mancha Khiri,มัญจาคีรี,Khon Kaen,16.12667,102.54222,72244.0,98.2,40160.0
Manorom,มโนรมย์,Chainat,15.309439999999999,100.08389,33041.0,147.9,17110.0
Mayo,มายอ,Pattani,6.718610000000001,101.41,53070.0,245.6,94140.0
Min Buri,มีนบุรี,Krung Thep Maha Nakhon,13.813889999999999,100.74806,115212.0,1810.0,10510.0
Moei Wadi,เมยวดี,Roi Et,16.38917,104.1575,22463.0,124.4,45250.0
Muak Lek,มวกเหล็ก,Saraburi,14.655560000000001,101.19833,49572.0,72.8,18180.0
Muang Sam Sip,ม่วงสามสิบ,Ubon Ratchathani,15.510829999999999,104.72639000000001,82757.0,90.2,34140.0
Mueang Chan,เมืองจันทร์,Sisaket,15.191670000000002,104.05333,17861.0,186.4,33120.0
Mueang Pan,เมืองปาน,Lampang,18.77056,99.49833000000001,34494.0,39.9,52240.0
Mueang Phang Nga,พังงา,Phang Nga,8.44333,98.51805999999999,38426.0,69.9,82000.0
Mueang Suang,เมืองสรวง,Roi Et,15.82361,103.71778,23751.0,113.4,45220.0
Mueang Yang,เมืองยาง,Nakhon Ratchasima,15.423329999999998,102.90167,28501.0,111.5,30270.0
Mueang Mukdahan,เมืองมุกดาหาร,Mukdahan,16.53806,104.71472,129351.0,103.6,49000.0
Na Bon,นาบอน,Nakhon Si Thammarat,8.26167,99.595,26428.0,137.0,80220.0
Na Chaluai,นาจะหลวย,Ubon Ratchathani,14.52139,105.24611000000002,53774.0,85.1,34280.0
Na Chueak,นาเชือก,Maha Sarakham,15.8,103.03166999999999,60856.0,115.2,44170.0
Na Di,นาดี,Prachinburi,14.11,101.785,48239.0,41.3,25220.0
Na Duang,นาด้วง,Loei,17.47917,101.97055999999999,25232.0,42.8,42210.0
Na Dun,นาดูน,Maha Sarakham,15.71389,103.22694,36485.0,146.9,44180.0
Na Haeo,นาแห้ว,Loei,17.485,101.07,11011.0,17.5,42170.0
Na Kae,นาแก,Nakhon Phanom,16.94667,104.50083000000001,75365.0,141.6,48130.0
Nakhon Chai Si,นครชัยศรี,Nakhon Pathom,13.801110000000001,100.18778,106840.0,354.9,73120.0
Nakhon Luang,นครหลวง,Ayutthaya,14.464170000000001,100.60556,35713.0,166.9,13260.0
Mueang Nakhon Nayok,เมืองนครนายก,Nakhon Nayok,14.203610000000001,101.21722,98725.0,135.6,26000.0
Mueang Nakhon Pathom,เมืองนครปฐม,Nakhon Pathom,13.819720000000002,100.06583,271391.0,650.2,73000.0
Mueang Nakhon Phanom,เมืองนครพนม,Nakhon Phanom,17.36722,104.76056,141997.0,122.7,48000.0
Mueang Nakhon Ratchasima,อำเภอเมืองนครราชสีมา,Nakhon Ratchasima,14.971110000000001,102.09971999999999,454647.0,601.0,
Mueang Nakhon Sawan,เมืองนครสวรรค์,Nakhon Sawan,15.705,100.1375,238760.0,319.1,60000.0
Mueang Nakhon Si Thammarat,นครศรีธรรมราช,Nakhon Si Thammarat,8.42,99.96333,266613.0,431.83,80000.0
Nakhon Thai,นครไทย,Phitsanulok,17.10083,100.83778000000001,85842.0,38.7,65120.0
Na Khu,นาคู,Kalasin,16.78,104.03166999999999,31510.0,211.2,46160.0
Na Klang,นากลาง,Nongbua Lamphu,17.30722,102.18861,90996.0,159.4,39170.0
Nam Khun,น้ำขุ่น,Ubon Ratchathani,14.583329999999998,104.925,30587.0,81.0,34260.0
Nam Kliang,น้ำเกลี้ยง,Sisaket,14.927220000000002,104.51306,43339.0,168.1,33130.0
Nam Nao,น้ำหนาว,Phetchabun,16.76833,101.67166999999999,15485.0,25.0,67260.0
Na Mom,นาหม่อม,Songkhla,6.95833,100.55694,20950.0,226.6,90310.0
Na Mon,นามน,Kalasin,16.57528,103.78667,35234.0,132.6,46230.0
Nam Pat,น้ำปาด,Uttaradit,17.72833,100.68444000000001,30037.0,22.8,53150.0
Nam Phong,น้ำพอง,Khon Kaen,16.70194,102.85667,112414.0,136.8,40140.0
Nam Som,น้ำโสม,Udon Thani,17.77056,102.18972,55622.0,74.9,41210.0
Na Muen,นาหมื่น,Nan,18.18944,100.65889,14817.0,19.0,55180.0
Nam Yuen,น้ำยืน,Ubon Ratchathani,14.489170000000001,105.00083000000001,67641.0,79.2,34160.0
Mueang Nan,เมืองน่าน,Nan,18.79361,100.72944,81481.0,100.0,55000.0
Nang Rong,นางรอง,Buriram,14.628329999999998,102.79333000000001,108143.0,151.6,31110.0
Na Noi,นาน้อย,Nan,18.325,100.715,32560.0,23.0,55150.0
Na Pho,นาโพธิ์,Buriram,15.645,102.95167,33135.0,129.9,31230.0
Mueang Narathiwat,เมืองนราธิวาส,Narathiwat,6.4261099999999995,101.82306,108644.0,356.1,96000.0
Na Tan,นาตาล,Ubon Ratchathani,15.905,105.27667,34735.0,181.0,34170.0
Na Thawi,นาทวี,Songkhla,6.74167,100.69167,58675.0,78.5,90160.0
Na Thom,นาทม,Nakhon Phanom,17.78528,104.09056,21930.0,55.1,48140.0
Na Wa,นาหว้า,Nakhon Phanom,17.48944,104.10139000000001,44661.0,85.4,48180.0
Na Wang,นาวัง,Nongbua Lamphu,17.322779999999998,102.0725,37316.0,114.3,42170.0
Na Yai Am,นายายอาม,Chanthaburi,12.77,101.855,32108.0,107.0,22160.0
Na Yia,นาเยีย,Ubon Ratchathani,15.059439999999999,105.06028,24970.0,110.0,34160.0
Na Yong,นาโยง,Trang,7.5616699999999994,99.695,42294.0,256.2,92170.0
Na Yung,นายูง,Udon Thani,17.89667,102.15,25701.0,49.0,41380.0
Ngao,งาว,Lampang,18.776670000000003,99.97,58813.0,32.4,52110.0
Nikhom Kham Soi,นิคมคำสร้อย,Mukdahan,16.371667000000002,104.550556,42225.0,111.9,49130.0
Nikhom Nam Un,นิคมน้ำอูน,Sakon Nakhon,17.18306,103.71861,13696.0,84.5,47270.0
Nikhom Phatthana,นิคมพัฒนา,Rayong,12.831389999999999,101.20806,32482.0,136.8,21180.0
Noen Kham,เนินขาม,Chainat,14.96222,99.91167,17371.0,64.6,17130.0
Noen Maprang,เนินมะปราง,Phitsanulok,16.56833,100.63556,58689.0,57.0,65190.0
Noen Sa-nga,เนินสง่า,Chaiyaphum,15.56417,102.00166999999999,24125.0,108.7,36130.0
Non Daeng,โนนแดง,Nakhon Ratchasima,15.410829999999999,102.54028000000001,25468.0,136.5,30360.0
Non Din Daeng,โนนดินแดง,Buriram,14.315829999999998,102.74361,26073.0,58.2,31260.0
Nong Bua,หนองบัว,Nakhon Sawan,15.865,100.58610999999999,70609.0,86.2,60110.0
Nong Bua Daeng,หนองบัวแดง,Chaiyaphum,16.081670000000003,101.80333,92766.0,41.9,36210.0
Nong Bua Lam Phu,หนองบัวลำภู,Nongbua Lamphu,17.204167,102.44444399999999,130092.0,143.3,39000.0
Nong Bua Rawe,หนองบัวระเหว,Chaiyaphum,15.748610000000001,101.75944,36371.0,43.2,36250.0
Nong Bun Mak,หนองบุญมาก,Nakhon Ratchasima,14.739720000000002,102.36583,56287.0,100.0,30410.0
Nong Chang,หนองฉาง,Uthai Thani,15.39139,99.84139,44366.0,131.4,61110.0
Nong Chik,หนองจิก,Pattani,6.84444,101.17860999999999,69510.0,296.6,94170.0
Nong Chok,หนองจอก,Krung Thep Maha Nakhon,13.85556,100.8625,117385.0,497.0,10530.0
Nong Don,หนองโดน,Saraburi,14.68111,100.70833,13876.0,157.5,18190.0
Nong Han,หนองหาน,Udon Thani,17.36056,103.10556,114982.0,162.4,41130.0
Nong Hi,หนองฮี,Roi Et,15.61028,103.99056,25696.0,5.14,45140.0
Nong Hin,หนองหิน,Loei,17.12333,101.85833000000001,23255.0,53.5,42190.0
Nong Hong,หนองหงส์,Buriram,14.85,102.68833000000001,48442.0,144.6,31240.0
Nong Khae,หนองแค,Saraburi,14.339170000000001,100.86166999999999,88213.0,335.5,18140.0
Nong Khaem,หนองแขม,Krung Thep Maha Nakhon,13.704720000000002,100.34889,125545.0,3504.0,10160.0
Mueang Nong Khai,เมืองหนองคาย,Nong Khai,17.88,102.74167,145153.0,235.1,43000.0
Nong Khayang,หนองขาหย่าง,Uthai Thani,15.364170000000001,99.92917,16369.0,47.1,61130.0
Nong Ki,หนองกี่,Buriram,14.68806,102.53389,67658.0,175.7,31210.0
Nong Kung Si,หนองกุงศรี,Kalasin,16.655829999999998,103.29389,65521.0,104.5,46220.0
Nong Mamong,หนองมะโมง,Chainat,15.276670000000001,99.86667,19330.0,67.1,17100.0
Nong Muang,หนองม่วง,Lopburi,15.24722,100.65417,35257.0,79.1,15170.0
Nong Muang Khai,หนองม่วงไข่,Phrae,18.26472,100.19,19302.0,87.33,54170.0
Nong Na Kham,หนองนาคำ,Khon Kaen,16.800829999999998,102.34111,23402.0,147.3,40150.0
Nong Phai,หนองไผ,Phetchabun,15.990279999999998,101.0625,115832.0,85.2,67140.0
Nong Phok,หนองพอก,Roi Et,16.309720000000002,104.20306,64646.0,107.8,45210.0
Nong Prue,หนองปรือ,Kanchanaburi,14.61139,99.45028,29703.0,59.1,71220.0
Nong Ruea,หนองเรือ,Khon Kaen,16.49333,102.43333,91956.0,136.5,40210.0
Nong Saeng,หนองแสง,Udon Thani,17.1675,102.780556,25802.0,39.1,41340.0
Nong Saeng,หนองแสง,Saraburi,14.492222,100.784444,14781.0,169.7,18170.0
Nong Song Hong,หนองสองห้อง,Khon Kaen,15.73361,102.79556,78610.0,152.8,40190.0
Nong Suea,หนองเสือ,Pathum Thani,14.135,100.82417,46565.0,112.6,12170.0
Nong Sung,หนองสูง,Mukdahan,16.48667,104.34444,20874.0,50.9,49160.0
Nong Wua So,หนองวัวซอ,Udon Thani,17.1625,102.57278000000001,61658.0,87.7,41220.0
Nong Yai,หนองใหญ่,Chonburi,13.156670000000002,101.36667,21984.0,55.3,20190.0
Nong Ya Plong,หนองหญ้าปล้อง,Phetchaburi,13.16306,99.69722,14390.0,11.5,76160.0
Nong Ya Sai,หนองหญ้าไซ,Suphanburi,14.775,99.91111,49894.0,118.7,72240.0
Non Khun,โนนคูน,Sisaket,14.928329999999999,104.69,37865.0,218.5,33250.0
Non Narai,โนนนารายณ์,Surin,15.23833,103.91306,35394.0,177.7,32130.0
Non Sa-at,โนนสะอาด,Udon Thani,16.97833,102.89333,48459.0,114.0,41240.0
Non Sang,โนนสัง,Nongbua Lamphu,16.865560000000002,102.57222,64172.0,111.1,39140.0
Non Sila,โนนศิลา,Khon Kaen,15.973889999999999,102.66917,25987.0,142.3,40110.0
Non Sung,โนนสูง,Nakhon Ratchasima,15.18,102.25694,130064.0,192.1,30160.0
Non Suwan,โนนสุวรรณ,Buriram,14.57833,102.59833,23170.0,122.3,31110.0
Mueang Nonthaburi,เมืองนนทบุรี,Nonthaburi,13.86222,100.51333000000001,353923.0,4591.33,11000.0
Non Thai,โนนไทย,Nakhon Ratchasima,15.198329999999999,102.06944,74911.0,138.2,30220.0
Nopphitam,นบพิตำ,Nakhon Si Thammarat,8.719439999999999,99.75166999999999,29670.0,41.2,80160.0
Nuea Khlong,เหนือคลอง,Krabi,8.07472,99.00361,54789.0,132.1,81130.0
Omkoi,อมก๋อย,Chiang Mai,17.80111,98.35861,54568.0,26.1,50310.0
Ongkharak,องครักษ์,Nakhon Nayok,14.12139,101.00389,58294.0,119.8,26120.0
Pa Bon,ป่าบอน,Phatthalung,7.27,100.17,43981.0,115.5,93170.0
Pa Daet,ป่าแดด,Chiang Rai,19.504170000000002,99.99306,26628.0,79.9,57190.0
Pai,ปาย,Mae Hong Son,19.358610000000002,98.44,29526.0,13.2,58130.0
Pak Chom,ปากชม,Loei,18.02167,101.88833000000001,37934.0,39.6,42150.0
Pak Chong,ปากช่อง,Nakhon Ratchasima,14.7125,101.42194,182588.0,100.0,30130.0
Pakham,ปะคำ,Buriram,14.438329999999999,102.72556,43446.0,146.8,31220.0
Pak Khat,ปากคาด,Bueng Kan,18.29833,103.30667,33973.0,151.5,38190.0
Pak Kret,ปากเกร็ด,Nonthaburi,13.9125,100.49833000000001,201399.0,2296.6,11120.0
Pak Phanang,ปากพนัง,Nakhon Si Thammarat,8.35833,100.20666999999999,107505.0,254.4,80140.0
Pak Phayun,ปากพะยูน,Phatthalung,7.34167,100.31667,50052.0,115.3,93120.0
Pak Phli,ปากพลี,Nakhon Nayok,14.163329999999998,101.26861,24411.0,47.0,26130.0
Pak Tho,ปากท่อ,Ratchaburi,13.367779999999998,99.83055999999999,64917.0,79.2,70140.0
Pak Thong Chai,ปักธงชัย,Nakhon Ratchasima,14.71972,102.02139,115244.0,83.9,30150.0
Palian,ปะเหลียน,Trang,7.17167,99.68666999999999,62914.0,64.7,92120.0
Pa Mok,ป่าโมก,Ang Thong,14.49,100.44806,28140.0,348.0,14130.0
Panare,ปะนาเระ,Pattani,6.86,101.49139,43131.0,299.0,94130.0
Pang Mapha,ปางมะผ้า,Mae Hong Son,19.5225,98.24611,19708.0,24.7,58150.0
Pang Sila Thong,ปางศิลาทอง,Kamphaeng Phet,16.09667,99.49,30591.0,63.7,62120.0
Pa Phayom,ป่าพะยอม,Phatthalung,7.84,99.91833000000001,32280.0,83.5,93110.0
Pa Sang,ป่าซาง,Lamphun,18.52583,98.93916999999999,58641.0,195.5,51120.0
Pathio,ปะทิว,Chumphon,10.70917,99.31833,44393.0,74.5,86160.0
Pathum Rat,ปทุมรัตต์,Roi Et,15.635,103.34333000000001,52744.0,147.8,45190.0
Pathum Ratchawongsa,ปทุมราชวงศา,Amnat Charoen,15.892220000000002,104.90583000000001,46100.0,88.5,37110.0
Mueang Pathum Thani,เมืองปทุมธานี,Pathum Thani,14.019720000000001,100.535,154412.0,1285.0,12000.0
Pathum Wan,ปทุมวัน,Krung Thep Maha Nakhon,13.736670000000002,100.52333,97533.0,11654.0,10330.0
Pa Tio,ป่าติ้ว,Yasothon,15.831389999999999,104.38556,35398.0,114.9,35150.0
Mueang Pattani,เมืองปัตตานี,Pattani,6.86861,101.25,118302.0,1221.3,94000.0
Phachi,ภาชี,Ayutthaya,14.44917,100.72833,30481.0,291.7,13140.0
Phaisali,ไพศาลี,Nakhon Sawan,15.5975,100.65805999999999,70799.0,72.3,60220.0
Phakdi Chumphon,ภักดีชุมพล,Chaiyaphum,15.905,101.42166999999999,28111.0,31.2,36260.0
Phak Hai,ผักไห่,Ayutthaya,14.458329999999998,100.37,44436.0,235.1,13120.0
Pha Khao,ผาขาว,Loei,17.066670000000002,102.02667,40047.0,86.5,42240.0
Phan,พาน,Chiang Rai,19.55389,99.74056,128143.0,125.3,57120.0
Phana,พนา,Amnat Charoen,15.683329999999998,104.84666999999999,28001.0,216.2,37180.0
Phanat Nikhom,พนัสนิคม,Chonburi,13.45222,101.17721999999999,116439.0,258.2,20140.0
Phang Khon,พังโคน,Sakon Nakhon,17.3925,103.70944,52031.0,135.6,47160.0
Phanna Nikhom,พรรณนานิคม,Sakon Nakhon,17.351670000000002,103.84666999999999,79507.0,118.0,47130.0
Phanom,พนม,Surat Thani,8.855,98.81333000000001,33513.0,47.4,84250.0
Phanom Dong Rak,พนมดงรัก,Surin,14.44556,103.30444,35968.0,107.4,32140.0
Phanom Phrai,พนมไพร,Roi Et,15.678329999999999,104.11,75140.0,144.7,45140.0
Phanom Sarakham,พนมสารคาม,Chachoengsao,13.744720000000001,101.34722,79899.0,142.0,24120.0
Phanom Thuan,พนมทวน,Kanchanaburi,14.130279999999999,99.69889,51979.0,97.0,71140.0
Phan Thong,พานทอง,Chonburi,13.47056,101.09694,44859.0,259.3,20160.0
Phasi Charoen,ภาษีเจริญ,Krung Thep Maha Nakhon,13.714720000000002,100.43722,137473.0,7708.0,10160.0
Phato,พะโต๊ะ,Chumphon,9.79167,98.77667,22633.0,23.9,86180.0
Mueang Phatthalung,เมืองพัทลุง,Phatthalung,7.61833,100.07333,119680.0,280.0,93000.0
Phatthana Nikhom,พัฒนานิคม,Lopburi,14.85583,100.99,61306.0,118.6,15140.0
Phayakkhaphum Phisai,พยัคฆภูมิพิสัย,Maha Sarakham,15.51639,103.19360999999999,88124.0,214.5,44110.0
Phaya Mengrai,พญาเม็งราย,Chiang Rai,19.84889,100.15361,41972.0,67.7,57290.0
Mueang Phayao,เมืองพะเยา,Phayao,19.19194,99.87861,125818.0,143.8,56000.0
Phaya Thai,พญาไท,Krung Thep Maha Nakhon,13.78,100.54278000000001,90557.0,9.437999999999999,10400.0
Phayu,พยุห์,Sisaket,14.903329999999999,104.39166999999999,36325.0,161.1,33230.0
Phayuha Khiri,พยุหะคีรี,Nakhon Sawan,15.48722,100.14,62508.0,84.7,60130.0
Phen,เพ็ญ,Udon Thani,17.69528,102.90722,110190.0,121.3,41150.0
Phetchabun,เมืองเพชรบูรณ์,Phetchabun,16.44306,101.14917,211227.0,92.6,67000.0
Mueang Phetchaburi,เมืองเพชรบุรี,Phetchaburi,13.111939999999999,99.94389,115000.0,405.1,76000.0
Phibun Mangsahan,พิบูลมังสาหาร,Ubon Ratchathani,15.244439999999999,105.22888999999999,127357.0,99.5,34110.0
Phibun Rak,พิบูลย์รักษ์,Udon Thani,17.54917,103.0575,24185.0,129.7,41130.0
Phichai,พิชัย,Uttaradit,17.286939999999998,100.0875,77536.0,105.2,53120.0
Mueang Phichit,เมืองพิจิตร,Phichit,16.43833,100.35,112779.0,153.0,66000.0
Phimai,พิมาย,Nakhon Ratchasima,15.22056,102.48583,130296.0,145.3,30110.0
Phipun,พิปูน,Nakhon Si Thammarat,8.56,99.60833000000001,27578.0,75.8,80270.0
Mueang Phitsanulok,เมืองพิษณุโลก,Phitsanulok,16.824720000000003,100.25944,264387.0,352.1,65000.0
Phlapphla Chai,พลับพลาชัย,Buriram,14.73,103.16833000000001,42773.0,122.3,31250.0
Pho Chai,โพธิ์ชัย,Roi Et,16.323610000000002,103.76916999999999,56917.0,144.3,45230.0
Phon,พล,Khon Kaen,15.815829999999998,102.59861,86911.0,99.6,40120.0
Phon Charoen,พรเจริญ,Bueng Kan,18.031670000000002,103.70833,42109.0,113.0,38180.0
Phon Na Kaeo,โพนนาแก้ว,Sakon Nakhon,17.22111,104.29,35579.0,101.1,47230.0
Phon Phisai,โพนพิสัย,Nong Khai,18.02194,103.07722,96580.0,149.1,43120.0
Phon Sai,โพนทราย,Roi Et,15.487779999999999,103.99639,27420.0,127.0,45240.0
Phon Sawan,โพนสวรรค์,Nakhon Phanom,17.45639,104.46861,54352.0,75.6,48190.0
Phon Thong,โพนทอง,Roi Et,16.3,103.97806,108348.0,150.7,45110.0
Phop Phra,พบพระ,Tak,16.386110000000002,98.69028,63336.0,62.9,63160.0
Pho Prathap Chang,โพธิ์ประทับช้าง,Phichit,16.31111,100.275,43684.0,115.4,66190.0
Pho Sai,โพธิ์ไทร,Ubon Ratchathani,15.825829999999998,105.26083,42142.0,140.0,34340.0
Pho Si Suwan,โพธิ์ศรีสุวรรณ,Sisaket,15.231670000000001,104.07667,23519.0,211.7,33120.0
Pho Tak,โพธิ์ตาก,Nong Khai,17.87667,102.41,14886.0,145.2,43130.0
Pho Thale,โพทะเล,Phichit,16.075,100.30333,60781.0,127.1,66130.0
Photharam,โพธาราม,Ratchaburi,13.69222,99.85361,128434.0,308.0,70120.0
Pho Thong,โพธิ์ทอง,Ang Thong,14.666939999999999,100.40805999999999,53135.0,242.2,14120.0
Mueang Phrae,เมืองแพร่,Phrae,18.14556,100.14139,123811.0,163.7,54000.0
Phrai Bueng,ไพรบึง,Sisaket,14.74833,104.36166999999999,47725.0,191.82,33180.0
Phra Khanong,พระโขนง,Krung Thep Maha Nakhon,13.70222,100.60167,98957.0,7075.0,10260.0
Phra Nakhon,พระนคร,Krung Thep Maha Nakhon,13.764439999999999,100.49916999999999,61374.0,11158.9,10200.0
Phra Nakhon Si Ayutthaya,พระนครศรีอยุธยา,Ayutthaya,14.35222,100.57667,136467.0,1053.13,13000.0
Phran Kratai,พรานกระต่าย,Kamphaeng Phet,16.664720000000003,99.58861,68529.0,87.6,62110.0
Phrao,พร้าว,Chiang Mai,19.36583,99.20222,52222.0,45.5,50190.0
Phra Phrom,พระพรหม,Nakhon Si Thammarat,8.338330000000001,99.90167,41774.0,282.3,80000.0
Phra Phutthabat,พระพุทธบาท,Saraburi,14.72556,100.79528,70.354,245.1,18120.0
Phra Pradaeng,พระประแดง,Samut Prakan,13.65833,100.53389,207141.0,2822.0,10130.0
Phrasaeng,พระแสง,Surat Thani,8.56833,99.24833000000001,63774.0,63.7,84210.0
Phra Samut Chedi,พระสมุทรเจดีย์,Samut Prakan,13.568610000000001,100.56166999999999,100022.0,830.9,10290.0
Phra Thong Kham,พระทองคำ,Nakhon Ratchasima,15.30667,101.98167,44232.0,123.0,30220.0
Phra Yuen,พระยืน,Khon Kaen,16.32389,102.64860999999999,34064.0,198.0,40320.0
Phrom Buri,พรหมบุรี,Singburi,14.79111,100.45361,24306.0,294.6,16120.0
Phrom Khiri,พรหมคีรี,Nakhon Si Thammarat,8.52167,99.825,36906.0,114.79,80320.0
Phrom Phiram,พรหมพิราม,Phitsanulok,17.03333,100.20194000000001,89163.0,107.8,65150.0
Phu Kamyao,ภูกามยาว,Phayao,19.27167,99.97,22659.0,106.0,56000.0
Mueang Phuket,เมืองภูเก็ต,Phuket,7.89,98.385,196733.0,878.3,83000.0
Phu Khiao,ภูเขียว,Chaiyaphum,16.37639,102.12861,120792.0,150.7,36110.0
Phu Kradueng,ภูกระดึง,Loei,16.88417,101.88444,33438.0,47.2,42180.0
Phu Luang,ภูหลวง,Loei,17.14,101.665,23069.0,38.8,42230.0
Phunphin,พุนพิน,Surat Thani,9.10972,99.23194000000001,89908.0,72.8,84130.0
Phu Pha Man,ภูผาม่าน,Khon Kaen,16.645,101.90389,22229.0,78.1,40350.0
Phu Phan,ภูพาน,Sakon Nakhon,17.0,103.96556,36050.0,64.5,47180.0
Phu Phiang,ภูเพียง,Nan,18.74278,100.79916999999999,35535.0,70.0,55000.0
Phu Ruea,ภูเรือ,Loei,17.455,101.36333,21182.0,23.5,42160.0
Phu Sang,ภูซาง,Phayao,19.59917,100.32417,31407.0,107.0,56110.0
Phu Sing,ภูสิงห์,Sisaket,14.54667,104.13167,50585.0,53.8,33140.0
Phutthaisong,พุทไธสง,Buriram,15.548329999999998,103.025,46367.0,157.9,31120.0
Phutthamonthon,พุทธมณฑล,Nakhon Pathom,13.80194,100.32167,28275.0,541.0,73170.0
Phu Wiang,ภูเวียง,Khon Kaen,16.65444,102.37694,71597.0,115.1,40150.0
Plaeng Yao,แปลงยาว,Chachoengsao,13.58472,101.28416999999999,36607.0,154.3,24190.0
Plai Phraya,ปลายพระยา,Krabi,8.53333,98.86278,35434.0,81.8,81160.0
Pla Pak,ปลาปาก,Nakhon Phanom,17.18056,104.52611,50955.0,93.1,48160.0
Pluak Daeng,ปลวกแดง,Rayong,12.97222,101.21528,34878.0,146.9,21140.0
Pom Prap Sattru Phai,ป้อมปราบศัตรูพ่าย,Krung Thep Maha Nakhon,13.75806,100.51306,72040.0,37307.0,10100.0
Pong,ปง,Phayao,19.148329999999998,100.275,53212.0,29.8,56140.0
Pong Nam Ron,โป่งน้ำร้อน,Chanthaburi,12.90583,102.26278,38115.0,41.1,22140.0
Prachaksinlapakhom,ประจักษ์ศิลปาคม,Udon Thani,17.272779999999997,102.99417,24693.0,215.1,41110.0
Prachantakham,ประจันตคาม,Prachinburi,14.064720000000001,101.51528,52570.0,58.2,25130.0
Prachin Buri,ปราจีนบุรี,Prachinburi,14.050556,101.366667,106239.0,235.1,25000.0
Mueang Prachuap Khiri Khan,เมืองประจวบคีรีขันธ์,Prachuap Khiri Khan,11.80833,99.79666999999999,90869.0,109.48,77000.0
Prakhon Chai,ประโคนชัย,Buriram,14.606670000000001,103.12167,132141.0,147.3,31140.0
Pran Buri,ปราณบุรี,Prachuap Khiri Khan,12.395,99.91667,73634.0,96.2,77120.0
Prang Ku,ปรางค์กู่,Sisaket,14.856670000000001,104.04,68208.0,238.9,33170.0
Prasat,ปราสาท,Surin,14.64056,103.40472,153638.0,169.1,32140.0
Prathai,ประทาย,Nakhon Ratchasima,15.53333,102.72278,77780.0,127.7,30180.0
Prawet,ประเวศ,Krung Thep Maha Nakhon,13.71694,100.69444,134189.0,2556.0,10200.0
Pua,ปัว,Nan,19.17417,100.91667,64263.0,98.0,55120.0
Pueai Noi,เปือยน้อย,Khon Kaen,15.87139,102.90556,19917.0,114.1,40340.0
Raman,รามัน,Yala,6.478330000000001,101.42416999999999,85187.0,142.2,95140.0
Ra-ngae,ระแงะ,Narathiwat,6.29639,101.72833,144259.0,331.2,96130.0
Mueang Ranong,เมืองระนอง,Ranong,9.96722,98.63389000000001,90569.0,126.9,85000.0
Ranot,ระโนด,Songkhla,7.768330000000001,100.32333,67551.0,90.5,90140.0
Rasi Salai,ราษีไศล,Sisaket,15.340279999999998,104.15389,82333.0,163.1,33160.0
Rat Burana,ราษฎร์บูรณะ,Krung Thep Maha Nakhon,13.682220000000001,100.50556,95041.0,6022.0,10140.0
Mueang Ratchaburi,เมืองราชบุรี,Ratchaburi,13.528329999999999,99.81166999999999,183528.0,426.5,70000.0
Ratchasan,ราชสาส์น,Chachoengsao,13.78222,101.28166999999999,12733.0,94.4,24120.0
Ratchathewi,ราชเทวี,Krung Thep Maha Nakhon,13.75889,100.53444,101892.0,14299.0,10400.0
Ratsada,รัษฎา,Trang,7.975,99.63333,26381.0,113.5,92160.0
Rattanaburi,รัตนบุรี,Surin,15.320279999999999,103.85694000000001,94060.0,463.8,32130.0
Rattanawapi,รัตนวาปี,Nong Khai,18.22,103.18,36920.0,181.0,43120.0
Rattaphum,รัตภูมิ,Songkhla,7.135,100.27333,67961.0,114.8,90180.0
Mueang Rayong,เมืองระยอง,Rayong,12.668330000000001,101.275,229657.0,410.3,21000.0
Renu Nakhon,เรณูนคร,Nakhon Phanom,17.05611,104.67971999999999,45264.0,178.2,48170.0
Mueang Roi Et,เมืองร้อยเอ็ด,Roi Et,16.05333,103.65333000000001,153567.0,311.1,45000.0
Rong Kham,ร่องคำ,Kalasin,16.26667,103.74056,16444.0,200.3,46210.0
Rong Kwang,ร้องกวาง,Phrae,18.33972,100.3175,51016.0,81.4,54140.0
Ron Phibun,ร่อนพิบูลย์,Nakhon Si Thammarat,8.18,99.855,82754.0,246.7,80130.0
Rueso,รือเสาะ,Narathiwat,6.3947199999999995,101.51833,62893.0,134.3,96180.0
Saba Yoi,สะบ้าย้อย,Songkhla,6.61833,100.95167,63496.0,74.4,90210.0
Sa Bot,สระโบสถ์,Lopburi,15.195279999999999,100.84861,21279.0,698.0,15240.0
Sadao,สะเดา,Songkhla,6.638610000000001,100.42389,120306.0,116.5,90120.0
Sahatsakhan,สหัสขันธ์,Kalasin,16.71333,103.52,41536.0,131.3,46140.0
Sai Buri,สายบุรี,Pattani,6.701389999999999,101.6175,64260.0,353.6,94110.0
Sai Mai,สายไหม,Krung Thep Maha Nakhon,13.919170000000001,100.64583,161749.0,3625.0,10220.0
Sai Mun,ทรายมูล,Yasothon,15.93944,104.20889,31092.0,114.0,35170.0
Sai Ngam,ไทรงาม,Kamphaeng Phet,16.47222,99.89667,51183.0,114.0,62150.0
Sai Noi,ไทรน้อย,Nonthaburi,13.97889,100.31361,55000.0,295.7,11150.0
Sai Thong Watthana,ทรายทองวัฒนา,Kamphaeng Phet,16.31222,99.83111,23971.0,94.7,62190.0
Sai Yok,อำเภอไทรโยค,Kanchanaburi,14.11556,99.14444,51692.0,18.9,71150.0
Mueang Sa Kaeo,เมืองสระแก้ว,Sa Kaeo,13.814720000000001,102.07194,107092.0,58.0,27000.0
Sakhrai,สระใคร,Nong Khai,17.675,102.75056,25247.0,119.7,43150.0
Sak Lek,สากเหล็ก,Phichit,16.50972,100.46944,24376.0,138.2,66160.0
Mueang Sakon Nakhon,เมืองสกลนคร,Sakon Nakhon,17.15556,104.13389000000001,188898.0,184.6,47000.0
Sam Chai,สามชัย,Kalasin,16.863329999999998,103.53833,25222.0,45.8,46180.0
Sam Chuk,สามชุก,Suphanburi,14.755279999999999,100.09472,58223.0,163.6,72130.0
Sam Khok,สามโคก,Pathum Thani,14.06528,100.5225,48927.0,515.0,12160.0
Samko,สามโก้,Ang Thong,14.60556,100.24472,17589.0,202.4,14160.0
Sam Ngam,สามง่าม,Phichit,16.50889,100.20472,43933.0,130.4,66140.0
Sam Ngao,สามเงา,Tak,17.24333,99.0225,32483.0,11.7,63130.0
Samoeng,สะเมิง,Chiang Mai,18.84806,98.7325,23236.0,25.9,50250.0
Samphanthawong,สัมพันธวงศ์,Krung Thep Maha Nakhon,13.73139,100.51417,35547.0,25104.0,10100.0
Sam Phran,สามพราน,Nakhon Pathom,13.72417,100.21667,171562.0,688.0,73110.0
Sam Roi Yot,สามร้อยยอด,Prachuap Khiri Khan,12.270560000000001,99.87194000000001,47845.0,54.87,77180.0
Samrong,สำโรง,Ubon Ratchathani,15.008329999999999,104.78222,51959.0,124.9,34360.0
Samrong Thap,สำโรงทาบ,Surin,15.0225,103.93611,52459.0,139.8,32170.0
Sam Sung,ซำสูง,Khon Kaen,16.54306,103.07972,23672.0,202.8,40170.0
Mueang Samut Prakan,เมืองสมุทรปราการ,Samut Prakan,13.60056,100.59666999999999,460141.0,2415.0,10270.0
Mueang Samut Sakhon,เมืองสมุทรสาคร,Samut Sakhon,13.548329999999998,100.27333,237045.0,482.0,74000.0
Mueang Samut Songkhram,เมืองสมุทรสงคราม,Samut Songkhram,13.413889999999999,100.00333,103559.0,610.8,75000.0
Sanam Chai Khet,สนามชัยเขต,Chachoengsao,13.65833,101.43889,69281.0,41.6,24160.0
Sangkha,สังขะ,Surin,14.63611,103.85278000000001,126872.0,124.4,32150.0
Sangkhla Buri,สังขละบุรี,Kanchanaburi,15.155560000000001,98.45333000000001,40162.0,12.0,71240.0
Sangkhom,สังคม,Nong Khai,18.06417,102.27333,22998.0,51.1,43160.0
Sang Khom,สร้างคอม,Udon Thani,17.82556,103.08861,28441.0,99.0,41260.0
San Kamphaeng,สันกำแพง,Chiang Mai,18.745279999999998,99.12028000000001,73721.0,372.6,50130.0
Sankhaburi,สรรคบุรี,Chainat,15.047220000000001,100.16167,67333.0,192.8,17140.0
Sanom,สนม,Surin,15.198889999999999,103.76167,45268.0,223.0,32160.0
San Pa Tong,สันป่าตอง,Chiang Mai,18.628610000000002,98.89556,75600.0,431.2,50120.0
San Sai,สันทราย,Chiang Mai,18.84861,99.045,105771.0,371.1,50210.0
Santi Suk,สันติสุข,Nan,18.91333,100.94139,15695.0,38.0,55000.0
Sao Hai,เสาไห้,Saraburi,14.550279999999999,100.8575,30292.0,270.9,18160.0
Saphan Sung,สะพานสูง,Krung Thep Maha Nakhon,13.77,100.68472,81784.0,2908.0,10240.0
Sapphaya,สรรพยา,Chainat,15.1375,100.24306,44553.0,195.2,17150.0
Sap Yai,ซับใหญ่,Chaiyaphum,15.641670000000001,101.63,13466.0,78.8,36130.0
Mueang Saraburi,เมืองสระบุรี,Saraburi,14.527220000000002,100.90972,106107.0,351.8,18000.0
Saraphi,สารภี,Chiang Mai,18.71333,99.03639,74782.0,767.4,50140.0
Sathing Phra,สทิงพระ,Songkhla,7.473330000000001,100.43833000000001,50089.0,417.4,90190.0
Sathon,สาทร,Krung Thep Maha Nakhon,13.708060000000001,100.52639,107159.0,11490.0,10120.0
Sattahip,สัตหีบ,Chonburi,12.66306,100.90556,137599.0,412.7,20180.0
Satuek,สตึก,Buriram,15.2975,103.29194,109221.0,136.0,31150.0
Mueang Satun,เมืองสตูล,Satun,6.62333,100.06667,101557.0,115.4,91000.0
Sawaeng Ha,แสวงหา,Ang Thong,14.751389999999999,100.32472,34734.0,187.4,14150.0
Sawang Arom,สว่างอารมณ์,Uthai Thani,15.58389,99.86083,31092.0,91.1,61150.0
Sawang Daen Din,สว่างแดนดิน,Sakon Nakhon,17.475,103.45833,146897.0,151.4,47110.0
Sawang Wirawong,สว่างวีรวงศ์,Ubon Ratchathani,15.241389999999999,105.09222,30170.0,110.0,34190.0
Sawankhalok,สวรรคโลก,Sukhothai,17.316670000000002,99.83166999999999,87735.0,151.7,64110.0
Sawi,สวี,Chumphon,10.253060000000001,99.09444,69340.0,77.2,86130.0
Seka,เซกา,Bueng Kan,17.92833,103.95333000000001,83137.0,82.3,38150.0
Selaphum,เสลภูมิ,Roi Et,16.03333,103.93389,122100.0,154.1,45120.0
Sena,เสนา,Ayutthaya,14.32722,100.40444000000001,64436.0,313.4,13110.0
Senangkhanikhom,เสนางคนิคม,Amnat Charoen,16.03833,104.67,40188.0,76.4,37290.0
Si Banphot,ศรีบรรพต,Phatthalung,7.72,99.88333,16465.0,75.4,93190.0
Si Bun Rueang,ศรีบุญเรือง,Nongbua Lamphu,16.96583,102.28,107804.0,129.8,39180.0
Si Chiang Mai,ศรีเชียงใหม่,Nong Khai,17.95639,102.58944,31132.0,157.2,43130.0
Si Chomphu,สีชมพู,Khon Kaen,16.800279999999997,102.18778,78220.0,147.9,40220.0
Sichon,สิชล,Nakhon Si Thammarat,9.00667,99.90167,83981.0,119.4,80120.0
Sida,สีดา,Nakhon Ratchasima,15.5425,102.56583,24540.0,144.3,30430.0
Sikao,สิเกา,Trang,7.57167,99.345,34486.0,63.6,92150.0
Sikhio,สีคิ้ว,Nakhon Ratchasima,14.891670000000001,101.72333,121356.0,97.3,30140.0
Sikhoraphum,ศีขรภูมิ,Surin,14.946670000000001,103.79167,138020.0,245.8,32150.0
Sila Lat,ศิลาลาด,Sisaket,15.473329999999999,104.07167,20857.0,158.2,33160.0
Si Maha Phot,ศรีมหาโพธิ,Prachinburi,13.98306,101.51306,58835.0,144.5,25140.0
Si Mahosot,ศรีมโหสถ,Prachinburi,13.881670000000002,101.40666999999999,18137.0,138.6,25190.0
Si Mueang Mai,ศรีเมืองใหม่,Ubon Ratchathani,15.49528,105.27861000000001,65443.0,50.0,34250.0
Si Nakhon,ศรีนคร,Sukhothai,17.34806,99.99083,27374.0,88.3,64180.0
Si Narong,ศรีณรงค์,Surin,14.76694,103.87472,46029.0,112.3,32150.0
Mueang Sing Buri,เมืองสิงห์บุรี,Singburi,14.888329999999998,100.40472,58044.0,516.4,16000.0
Singhanakhon,สิงหนคร,Songkhla,7.23833,100.55278,79281.0,347.7,90330.0
Si Prachan,ศรีประจันต์,Suphanburi,14.619720000000001,100.14444,64995.0,359.1,72140.0
Si Racha,ศรีราชา,Chonburi,13.174439999999999,100.93056,167896.0,272.0,20110.0
Si Rattana,ศรีรัตนะ,Sisaket,14.79333,104.46972,51933.0,219.4,33240.0
Sirindhorn,สิรินธร,Ubon Ratchathani,15.201670000000002,105.39833,48156.0,130.2,34350.0
Mueang Si Sa Ket,เมืองศรีสะเกษ,Sisaket,15.120560000000001,104.32222,135512.0,233.9,33000.0
Si Sakhon,ศรีสาคร,Narathiwat,6.23139,101.5,31576.0,63.1,96210.0
Si Samrong,ศรีสำโรง,Sukhothai,17.164720000000003,99.86194,73810.0,130.5,64120.0
Si Satchanalai,ศรีสัชนาลัย,Sukhothai,17.517220000000002,99.76028000000001,95198.0,46.4,64130.0
Si Sawat,ศรีสวัสดิ์,Kanchanaburi,14.59917,99.11389,23700.0,7.2,71250.0
Si Somdet,ศรีสมเด็จ,Roi Et,15.98722,103.51083,37161.0,170.9,45000.0
Si Songkhram,ศรีสงคราม,Nakhon Phanom,17.62722,104.25056,65952.0,98.2,48150.0
Si That,ศรีธาตุ,Udon Thani,16.97278,103.21667,47888.0,93.4,41230.0
Si Thep,ศรีเทพ,Phetchabun,15.45333,101.06721999999999,63300.0,78.1,67170.0
Si Wilai,ศรีวิไล,Bueng Kan,18.17667,103.75,38899.0,151.5,43210.0
Soem Ngam,เสริมงาม,Lampang,18.065279999999998,99.24722,32714.0,51.8,52130.0
Soeng Sang,เสิงสาง,Nakhon Ratchasima,14.426110000000001,102.46056,68387.0,53.6,30330.0
Soi Dao,สอยดาว,Chanthaburi,13.137220000000001,102.21889,62340.0,85.0,22180.0
Somdet,สมเด็จ,Kalasin,16.704439999999998,103.75,61380.0,135.2,46150.0
Song,สอง,Phrae,18.47,100.18333,53687.0,33.0,54120.0
Song Dao,ส่องดาว,Sakon Nakhon,17.335,103.46333,32439.0,102.1,47190.0
Mueang Songkhla,เมืองสงขลา,Songkhla,7.2069399999999995,100.59639,163072.0,948.7,90000.0
Song Khwae,สองแคว,Nan,19.359720000000003,100.70083000000001,11765.0,22.0,55160.0
Song Phi Nong,สองพี่น้อง,Suphanburi,14.22361,100.02111,126905.0,173.3,72110.0
So Phisai,โซ่พิสัย,Bueng Kan,18.078329999999998,103.44333,69450.0,68.6,38170.0
Sop Moei,สบเมย,Mae Hong Son,17.96194,97.93333,41726.0,29.5,58110.0
Sop Prap,สบปราบ,Lampang,17.88083,99.33722,28515.0,56.8,52170.0
Srinagarindra,ศรีนครินทร์,Phatthalung,7.57333,99.94167,25412.0,112.6,93000.0
Suan Luang,สวนหลวง,Krung Thep Maha Nakhon,13.730279999999999,100.65139,114940.0,4.854,10250.0
Suan Phueng,สวนผึ้ง,Ratchaburi,13.54333,99.34,30252.0,30.1,70180.0
Sukhirin,สุคิริน,Narathiwat,5.93889,101.77056,22194.0,43.3,96190.0
Mueang Sukhothai,เมืองสุโขทัย,Sukhothai,17.00778,99.82306,106397.0,185.0,64000.0
Suk Samran,สุขสำราญ,Ranong,9.34472,98.42944,11046.0,28.0,85120.0
Su-ngai Kolok,สุไหงโก-ลก,Narathiwat,6.02944,101.96611,69757.0,504.4,96120.0
Su-ngai Padi,สุไหงปาดี,Narathiwat,6.08528,101.88028,54095.0,145.2,96140.0
Sung Men,สูงเม่น,Phrae,18.05194,100.11166999999999,80129.0,213.7,54130.0
Sung Noen,สูงเนิน,Nakhon Ratchasima,14.9,101.82167,75990.0,97.1,30170.0
Suphan Buri,สุพรรณบุรี,Suphanburi,14.484444,100.123611,158087.0,292.3,72000.0
Mueang Surat Thani,เมืองสุราษฎร์ธานี,Surat Thani,9.136389999999999,99.32028000000001,166891.0,713.8,84100.0
Mueang Surin,เมืองสุรินทร์,Surin,14.881670000000002,103.49333,257845.0,281.1,32000.0
Suwannakhuha,สุวรรณคูหา,Nongbua Lamphu,17.56333,102.27972,66277.0,102.6,39270.0
Suwannaphum,สุวรรณภูมิ,Roi Et,15.60917,103.80028,116917.0,105.6,45130.0
Mueang Tak,เมืองตาก,Tak,16.88167,99.12361,98493.0,61.6,63000.0
Tak Bai,ตากใบ,Narathiwat,6.25889,102.055,66579.0,257.5,96110.0
Tak Fa,ตากฟ้า,Nakhon Sawan,15.34583,100.49472,41192.0,72.2,60190.0
Takhli,ตาคลี,Nakhon Sawan,15.263060000000001,100.34361,114912.0,134.5,60140.0
Takua Pa,ตะกั่วป่า,Phang Nga,8.869439999999999,98.34306,41240.0,72.5,82110.0
Takua Thung,ตะกั่วทุ่ง,Phang Nga,8.39222,98.45194000000001,40392.0,66.1,82130.0
Taling Chan,ตลิ่งชัน,Krung Thep Maha Nakhon,13.77694,100.45666999999999,105.20200000000001,3536.0,10170.0
Tamot,ตะโหมด,Phatthalung,7.34,100.11166999999999,27982.0,105.9,93160.0
Tan Sum,ตาลสุม,Ubon Ratchathani,15.315560000000001,105.155,31164.0,62.1,34330.0
Tao Ngoi,เต่างอย,Sakon Nakhon,16.99667,104.1675,23043.0,159.0,47260.0
Taphan Hin,ตะพานหิน,Phichit,16.215,100.42166999999999,70573.0,152.1,66110.0
Ta Phraya,ตาพระยา,Sa Kaeo,14.006110000000001,102.80583,52284.0,81.4,27180.0
Tap Khlo,ทับคล้อ,Phichit,16.16167,100.59666999999999,46377.0,122.6,66150.0
Tha Bo,ท่าบ่อ,Nong Khai,17.84972,102.58111,84708.0,238.4,43110.0
Tha Chana,ท่าชนะ,Surat Thani,9.57222,99.165,51664.0,72.6,84170.0
Tha Chang,ท่าช้าง,Surat,9.280833,99.20083299999999,31013.0,26.56,84150.0
Tha Chang,ท่าช้าง,Sing Buri,14.761667000000001,100.39,16257.0,472.0,16140.0
Thai Charoen,ไทยเจริญ,Yasothon,16.06306,104.44722,29842.0,109.7,35120.0
Thai Mueang,ท้ายเหมือง,Phang Nga,8.4,98.26167,45547.0,74.4,82120.0
Tha Khantho,ท่าคันโท,Kalasin,16.94,103.24444,37293.0,94.7,46190.0
Thalang,ถลาง,Phuket,8.03167,98.33389,75224.0,298.5,83110.0
Tha Li,ท่าลี่,Loei,17.62444,101.42139,27117.0,39.7,42140.0
Tha Luang,ท่าหลวง,Lopburi,15.06833,101.10694000000001,27996.0,52.0,15130.0
Tha Mai,ท่าใหม่,Chanthaburi,12.62083,102.01,69403.0,112.1,22120.0
Tha Maka,ท่ามะกา,Kanchanaburi,13.920829999999999,99.76556,133051.0,390.4,71120.0
Tham Phannara,ถ้ำพรรณรา,Nakhon Si Thammarat,8.42,99.395,17315.0,102.4,80260.0
Tha Muang,ท่าม่วง,Kanchanaburi,13.96667,99.63861,105415.0,172.5,71110.0
Than To,ธารโต,Yala,6.1672199999999995,101.18,21323.0,32.9,95150.0
Thanyaburi,ธัญบุรี,Pathum Thani,14.02111,100.73444,184597.0,1447.0,12110.0
Tha Phae,ท่าแพ,Satun,6.79,99.97,24991.0,126.7,91150.0
Tha Pla,ท่าปลา,Uttaradit,17.79306,100.37722,48902.0,29.1,53150.0
Thap Put,ทับปุด,Phang Nga,8.516110000000001,98.63972,24046.0,88.3,82180.0
Thap Sakae,ทับสะแก,Prachuap Khiri Khan,11.5,99.62167,47645.0,88.31,77130.0
Thap Than,ทัพทัน,Uthai Thani,15.45972,99.88667,38631.0,119.3,61120.0
Tha Ruea,ท่าเรือ,Ayutthaya,14.551670000000001,100.7275,48872.0,460.2,13130.0
Tha Sae,ท่าแซะ,Chumphon,10.665,99.17333,76947.0,51.8,86140.0
Tha Sala,ท่าศาลา,Nakhon Si Thammarat,8.66667,99.93167,106933.0,293.9,80160.0
Tha Song Yang,ท่าสองยาง,Tak,17.226670000000002,98.225,61161.0,31.8,63150.0
Tha Takiap,ท่าตะเกียบ,Chachoengsao,13.444720000000002,101.61111,42742.0,40.5,24160.0
Tha Tako,ท่าตะโก,Nakhon Sawan,15.641670000000001,100.4825,69160.0,113.9,60160.0
That Phanom,ธาตุพนม,Nakhon Phanom,16.93639,104.70944,83478.0,228.3,48110.0
Tha Tum,ท่าตูม,Surin,15.31833,103.675,97390.0,151.4,32120.0
Tha Uthen,ท่าอุเทน,Nakhon Phanom,17.55694,104.6125,57926.0,122.7,48120.0
Tha Wang Pha,ท่าวังผา,Nan,19.11972,100.80972,51518.0,73.0,55140.0
Thawat Buri,ธวัชบุรี,Roi Et,16.038610000000002,103.74694000000001,68431.0,183.0,45170.0
Thawi Watthana,ทวีวัฒนา,Krung Thep Maha Nakhon,13.776110999999998,100.320833,61177.0,1218.0,10170.0
Tha Wung,ท่าวุ้ง,Lopburi,14.815,100.51167,50687.0,208.8,15150.0
Tha Yang,ท่ายาง,Phetchaburi,12.97333,99.88778,80794.0,109.7,76130.0
Thepha,เทพา,Songkhla,6.82833,100.965,69278.0,70.8,90150.0
Thepharak,เทพารักษ์,Nakhon Ratchasima,15.309439999999999,101.55056,23279.0,65.1,30210.0
Thep Sathit,เทพสถิต,Chaiyaphum,15.391670000000001,101.45,65735.0,75.1,36230.0
Thoen,เถิน,Lampang,17.61167,99.21583000000001,61694.0,38.4,52160.0
Thoeng,เทิง,Chiang Rai,19.68556,100.19360999999999,84507.0,102.9,57160.0
Thon Buri,ธนบุรี,Krung Thep Maha Nakhon,13.725,100.48583,175768.0,20555.0,10600.0
Thong Pha Phum,ทองผาภูมิ,Kanchanaburi,14.745829999999998,98.625,62848.0,17.2,71180.0
Thong Saen Khan,ทองแสนขัน,Uttaradit,17.475279999999998,100.33361,33042.0,44.3,53230.0
Thung Chang,ทุ่งช้าง,Nan,19.387220000000003,100.87583000000001,18296.0,24.0,55130.0
Thung Fon,ทุ่งฝน,Udon Thani,17.47167,103.26,31029.0,136.2,41310.0
Thung Hua Chang,ทุ่งหัวช้าง,Lamphun,18.00306,99.02778,19067.0,39.2,51160.0
Thung Khao Luang,ทุ่งเขาหลวง,Roi Et,15.992220000000001,103.85916999999999,24260.0,174.7,45170.0
Thung Khru,ทุ่งครุ,Krung Thep Maha Nakhon,13.633308,100.49571999999999,104827.0,3410.0,10140.0
Thung Saliam,ทุ่งเสลี่ยม,Sukhothai,17.320829999999997,99.56083000000001,49962.0,87.66,64150.0
Thung Si Udom,ทุ่งศรีอุดม,Ubon Ratchathani,14.733329999999999,104.91,26986.0,87.9,34160.0
Thung Song,ทุ่งสง,Nakhon Si Thammarat,8.164719999999999,99.68083,151563.0,140.3,80110.0
Thung Tako,ทุ่งตะโก,Chumphon,10.11028,99.08278,23535.0,70.3,86220.0
Thung Wa,ทุ่งหว้า,Satun,7.10917,99.75583,20683.0,45.75,91120.0
Thung Yai,ทุ่งใหญ่,Nakhon Si Thammarat,8.296669999999999,99.375,67202.0,111.4,80240.0
Thung Yang Daeng,ทุ่งยางแดง,Pattani,6.6175,101.42583,20203.0,175.7,94140.0
Trakan Phuet Phon,ตระการพืชผล,Ubon Ratchathani,15.61222,105.02193999999999,120587.0,91.7,34130.0
Mueang Trang,เมืองตรัง,Trang,7.558330000000001,99.61,147034.0,268.0,92000.0
Mueang Trat,เมืองตราด,Trat,12.23167,102.51333000000001,89661.0,95.5,23000.0
Tron,ตรอน,Uttaradit,17.48222,100.11306,35036.0,113.6,53140.0
Ubolratana,อุบลรัตน์,Khon Kaen,16.752779999999998,102.63278000000001,43362.0,88.9,40250.0
Mueang Ubon Ratchathani,เมืองอุบลราชธานี,Ubon Ratchathani,15.22889,104.85417,211855.0,521.3,34000.0
Mueang Udon Thani,เมืองอุดรธานี,Udon Thani,17.415,102.78667,397049.0,358.5,41000.0
Umphang,อุ้มผาง,Tak,16.01667,98.86278,25757.0,6.0,63170.0
Uthai,อุทัย,Ayutthaya,14.361939999999999,100.67028,39943.0,213.8,13210.0
Mueang Uthai Thani,เมืองอุทัยธานี,Uthai Thani,15.379439999999999,100.02472,52591.0,210.3,61000.0
U Thong,อู่ทอง,Suphanburi,14.37556,99.89222,111696.0,1172.0,72160.0
Uthumphon Phisai,อุทุมพรพิสัย,Sisaket,15.111670000000002,104.14,109618.0,268.7,33120.0
Mueang Uttaradit,เมืองอุตรดิตถ์,Uttaradit,17.62583,100.09666999999999,151108.0,200.6,53000.0
Vibhavadi,วิภาวดี,Surat Thani,9.23889,98.97889,12791.0,23.4,84180.0
Wachirabarami,วชิรบารมี,Phichit,16.525,100.145,30739.0,118.5,66140.0
Waeng,แว้ง,Narathiwat,5.928059999999999,101.88389000000001,47314.0,136.2,96160.0
Waeng Noi,แวงน้อย,Khon Kaen,15.80361,102.41583,42408.0,149.5,40230.0
Waeng Yai,แวงใหญ่,Khon Kaen,15.959439999999999,102.54778,29424.0,155.6,40330.0
Wang Chan,วังจันทร์,Rayong,12.93472,101.52028,24481.0,61.9,21210.0
Wang Chao,วังเจ้า,Tak,16.70417,99.24278000000001,29726.0,90.4,63000.0
Wang Chin,วังชิ้น,Phrae,17.9,99.60333,47720.0,39.2,54160.0
Wang Hin,วังหิน,Sisaket,14.948329999999999,104.23,46888.0,197.3,33270.0
Wang Muang,วังม่วง,Saraburi,14.84556,101.13444,17536.0,51.9,18220.0
Wang Nam Khiao,วังน้ำเขียว,Nakhon Ratchasima,14.41833,101.85,41485.0,36.7,30370.0
Wang Nam Yen,วังน้ำเย็น,Sa Kaeo,13.499720000000002,102.18194,62059.0,190.9,27210.0
Wang Noi,วังน้อย,Ayutthaya,14.22667,100.71528,64130.0,259.3,13170.0
Wang Nuea,วังเหนือ,Lampang,19.145,99.62,44777.0,43.4,52140.0
Wang Pong,วังโป่ง,Phetchabun,16.34111,100.79333000000001,38473.0,70.8,67240.0
Wang Sai Phun,วังทรายพูน,Phichit,16.38833,100.53833,25541.0,98.4,66180.0
Wang Sam Mo,วังสามหมอ,Udon Thani,16.949720000000003,103.42860999999999,55730.0,76.6,41280.0
Wang Saphung,วังสะพุง,Loei,17.30167,101.76833,109424.0,94.6,42130.0
Wang Sombun,วังสมบูรณ์,Sa Kaeo,13.396939999999999,102.19861,35334.0,92.1,27250.0
Wang Thong,วังทอง,Phitsanulok,16.824170000000002,100.42860999999999,119103.0,71.5,65130.0
Wang Thonglang,วังทองหลาง,Krung Thep Maha Nakhon,18.694992000000003,98.78976999999999,114940.0,4.854,10310.0
Wang Wiset,วังวิเศษ,Trang,7.735,99.39333,38696.0,81.1,92220.0
Wang Yang,วังยาง,Nakhon Phanom,17.05611,104.45528,14440.0,104.7,48130.0
Wanon Niwat,วานรนิวาส,Sakon Nakhon,17.63222,103.75194,121097.0,119.4,47120.0
Wan Yai,หว้านใหญ่,Mukdahan,16.7275,104.73889,18683.0,221.2,49150.0
Wapi Pathum,วาปีปทุม,Maha Sarakham,15.846670000000001,103.38,114020.0,188.1,44160.0
Warin Chamrap,วารินชำราบ,Ubon Ratchathani,15.2025,104.8675,156355.0,226.3,34190.0
Waritchaphum,วาริชภูมิ,Sakon Nakhon,17.293329999999997,103.63667,51067.0,107.3,47150.0
Wat Bot,วัดโบสถ์,Phitsanulok,16.98028,100.33333,37165.0,28.0,65160.0
Wat Phleng,วัดเพลง,Ratchaburi,13.45389,99.88694,12228.0,322.6,70170.0
Wat Sing,วัดสิงห์,Chainat,15.255279999999999,100.03806,2632789.0,83.5,17120.0
Watthana,วัฒนา,Krung Thep Maha Nakhon,13.742220000000001,100.58583,82582.0,6.572,10110.0
Watthana Nakhon,วัฒนานคร,Sa Kaeo,13.747779999999999,102.3075,79856.0,51.1,27160.0
Wiang Chai,เวียงชัย,Chiang Rai,19.88306,99.93306,43968.0,169.9,57210.0
Wiang Chiang Rung,เวียงเชียงรุ้ง,Chiang Rai,20.01306,100.05694,26531.0,100.8,57210.0
Wiang Haeng,เวียงแหง,Chiang Mai,19.55944,98.63556,28876.0,93.8,50350.0
Wiang Kaen,เวียงแก่น,Chiang Rai,20.11222,100.51361,32310.0,61.4,57310.0
Wiang Kao,เวียงเก่า,Khon Kaen,16.67861,102.29444000000001,19750.0,69.1,40140.0
Wiang Nong Long,เวียงหนองล่อง,Lamphun,18.39333,98.71833000000001,18628.0,377.8,51120.0
Wiang Pa Pao,เวียงป่าเป้า,Chiang Rai,19.348329999999997,99.50667,68198.0,56.2,57170.0
Wiang Sa,เวียงสระ,Nan,18.598333,100.74,70357.0,37.0,55110.0
Wiang Sa,เวียงสระ,Surat Thani,8.629722000000001,99.343056,41030.0,96.0,84190.0
Wichian Buri,วิเชียรบุรี,Phetchabun,15.65722,101.10667,129291.0,79.2,67130.0
Wihan Daeng,วิหารแดง,Saraburi,14.34639,100.98944,33883.0,165.7,18150.0
Wiset Chai Chan,วิเศษชัยชาญ,Ang Thong,14.594439999999999,100.33861,65298.0,290.6,14110.0
Yaha,ยะหา,Yala,6.478330000000001,101.135,51546.0,103.1,95120.0
Mueang Yala,เมืองยะลา,Yala,6.5425,101.28305999999999,161194.0,620.3,95000.0
Yang Chum Noi,ยางชุมน้อย,Sisaket,15.26167,104.40111,36991.0,191.2,33180.0
Yang Sisurat,ยางสีสุราช,Maha Sarakham,15.69,103.10333,35482.0,146.3,44210.0
Yang Talat,ยางตลาด,Kalasin,16.40222,103.37306,129022.0,207.2,46120.0
Yan Nawa,ยานนาวา,Krung Thep Maha Nakhon,13.69694,100.54306,88986.0,5.341,10120.0
Yan Ta Khao,ย่านตาขาว,Trang,7.38667,99.66667,61416.0,142.5,92140.0
Yarang,ยะรัง,Pattani,6.760280000000001,101.29333000000001,83770.0,455.2,94160.0
Yaring,ยะหริ่ง,Pattani,6.866389999999999,101.36917,77941.0,396.0,94150.0
Mueang Yasothon,เมืองยโสธร,Yasothon,15.794720000000002,104.14056,129999.0,224.8,35000.0
Yi-ngo,ยี่งอ,Narathiwat,6.40306,101.70611,40685.0,202.9,96180.0
